{
"type": "FeatureCollection",
"name": "sitios_ramsar",
"crs": { "type": "name", "properties": { "name": "urn:ogc:def:crs:OGC:1.3:CRS84" } },
"features": [
{ "type": "Feature", "properties": { "Cobertura": "Laguna Tecocomulco" }, "geometry": { "type": "Polygon", "coordinates": [ [ [ -98.34204105856179, 19.884168896872634 ], [ -98.344761375097221, 19.88161954611757 ], [ -98.347034168413231, 19.879969157048805 ], [ -98.351783272878464, 19.876935830775622 ], [ -98.354694341442368, 19.874584222489737 ], [ -98.356727404641688, 19.872664341427413 ], [ -98.357285409827909, 19.871918149374565 ], [ -98.357652407969709, 19.871091687260133 ], [ -98.358205672857011, 19.869365558415264 ], [ -98.359863682406498, 19.86319872955244 ], [ -98.36045245453289, 19.861498837361875 ], [ -98.360846949408582, 19.8607023921404 ], [ -98.362258238400656, 19.859444217803404 ], [ -98.363510262349706, 19.85806831604279 ], [ -98.365542305484695, 19.853987068690866 ], [ -98.366626078824382, 19.852489674269354 ], [ -98.367850846054765, 19.8511012617201 ], [ -98.368565866142006, 19.850512039565274 ], [ -98.370269148546058, 19.849677101916342 ], [ -98.372155457491516, 19.849396614229644 ], [ -98.373074730458384, 19.849152863859331 ], [ -98.374797019060978, 19.848359163810905 ], [ -98.375497293218416, 19.847758450931664 ], [ -98.376061058767789, 19.847020239382033 ], [ -98.377518340659933, 19.844671916303245 ], [ -98.378072100578507, 19.84394896071576 ], [ -98.378793106043105, 19.843359498546054 ], [ -98.379614377830137, 19.842877263137627 ], [ -98.380509154252223, 19.842558298024432 ], [ -98.38146742967848, 19.842491033782984 ], [ -98.38239871840301, 19.842659269391373 ], [ -98.385107274196955, 19.843547940428572 ], [ -98.386063554497269, 19.843611184416581 ], [ -98.388925629971766, 19.843338182201823 ], [ -98.390765931015977, 19.842905959947 ], [ -98.391503212506905, 19.842324748297507 ], [ -98.392726479642647, 19.840933830590124 ], [ -98.393535240640873, 19.840449120025657 ], [ -98.394424766731845, 19.840088377278111 ], [ -98.39630981559776, 19.839967889680679 ], [ -98.397219607966804, 19.839677651379027 ], [ -98.398063621188001, 19.839257174864898 ], [ -98.39957841670666, 19.838154995364505 ], [ -98.401694225123777, 19.836325870025036 ], [ -98.403961768108587, 19.834662715151065 ], [ -98.404767798934657, 19.834186255106889 ], [ -98.405651069631304, 19.833831017706633 ], [ -98.407488115470215, 19.833326790911482 ], [ -98.411288470109952, 19.832894058624557 ], [ -98.413190275032434, 19.832923535483236 ], [ -98.415094060079824, 19.833124518156598 ], [ -98.417902912198187, 19.833676717976829 ], [ -98.421431494700769, 19.835069360793032 ], [ -98.42327031065129, 19.83559781411574 ], [ -98.424221580635717, 19.835727302280969 ], [ -98.426106869516886, 19.835581058059255 ], [ -98.42893295772204, 19.835130564652466 ], [ -98.432688819556134, 19.83439935854458 ], [ -98.436395658299048, 19.833537404192217 ], [ -98.438306208773099, 19.833672877734756 ], [ -98.439223246598814, 19.833949120153786 ], [ -98.439783741942179, 19.834644308990615 ], [ -98.439981754428146, 19.835543990722051 ], [ -98.439550252218936, 19.837318617624852 ], [ -98.439012498309651, 19.838045818480349 ], [ -98.436979195095319, 19.83996370441675 ], [ -98.435510662493741, 19.841119872321464 ], [ -98.433889870291054, 19.842090328515631 ], [ -98.433160839320479, 19.842664774738697 ], [ -98.432537084988283, 19.84335924352996 ], [ -98.43202907795478, 19.844120946560775 ], [ -98.431762316133415, 19.844993386574263 ], [ -98.431789827868201, 19.845903313951858 ], [ -98.431492314107999, 19.84677450888703 ], [ -98.430931548747481, 19.847489213954216 ], [ -98.430180526390231, 19.848044683980664 ], [ -98.428497975293226, 19.848923364387876 ], [ -98.427569206727654, 19.849156614095779 ], [ -98.42566542168025, 19.849352856470482 ], [ -98.424739143271793, 19.849559599506954 ], [ -98.423865128158795, 19.849934833168206 ], [ -98.423094844586871, 19.850484287815316 ], [ -98.422586837553411, 19.851232489994832 ], [ -98.422303829707687, 19.852113690560842 ], [ -98.421875567702727, 19.852906640561976 ], [ -98.421198800027781, 19.853565332097265 ], [ -98.420394794329226, 19.854035551748112 ], [ -98.417661201956662, 19.85491552223656 ], [ -98.416827944413669, 19.855344489285891 ], [ -98.41622442635753, 19.856038193029132 ], [ -98.415924167424166, 19.856903372584817 ], [ -98.415772417855138, 19.857805559474119 ], [ -98.415882674807662, 19.858691515340116 ], [ -98.416238932272165, 19.859546194233705 ], [ -98.417429227328938, 19.860998840833453 ], [ -98.417873240327069, 19.861750043202374 ], [ -98.417693739008385, 19.862656475359319 ], [ -98.417358977899184, 19.863519179759109 ], [ -98.416736468645581, 19.864189137004757 ], [ -98.415203431976479, 19.865280305810888 ], [ -98.413486393704943, 19.8660877617267 ], [ -98.41258036657328, 19.866374009776631 ], [ -98.406024443175113, 19.867616208106266 ], [ -98.403258118738364, 19.868352394528142 ], [ -98.40070656284442, 19.869563345887215 ], [ -98.396631960911492, 19.871935190449211 ], [ -98.395247178590964, 19.873178123825245 ], [ -98.394239160028107, 19.874713515642625 ], [ -98.393930155543075, 19.875570219663892 ], [ -98.393801402424273, 19.876465146095615 ], [ -98.393768415344184, 19.877373843395556 ], [ -98.393982913869834, 19.878229032321226 ], [ -98.393455165591519, 19.88075385652964 ], [ -98.393180648281259, 19.881612315661702 ], [ -98.392390383449367, 19.883265194887787 ], [ -98.391362368625792, 19.88479134612243 ], [ -98.390743594607528, 19.885475044234671 ], [ -98.389283567542179, 19.886664469236297 ], [ -98.387657284993423, 19.887602418380794 ], [ -98.3859259958232, 19.888390133051921 ], [ -98.385051215662045, 19.888750605782256 ], [ -98.384113941560202, 19.888907350666212 ], [ -98.383148915708205, 19.888903600429838 ], [ -98.382247643876568, 19.888612627081827 ], [ -98.381568116027523, 19.887986427595386 ], [ -98.379878064457614, 19.885783073658182 ], [ -98.379200801751196, 19.885154879045924 ], [ -98.378281783800617, 19.884945660853237 ], [ -98.377333499004294, 19.885153633967274 ], [ -98.376484235452097, 19.885541108400272 ], [ -98.375877222175646, 19.88625231824722 ], [ -98.375454960549035, 19.887080520471322 ], [ -98.375243702227593, 19.887951955421737 ], [ -98.375510224033718, 19.888825400498646 ], [ -98.376083245166839, 19.889547606038832 ], [ -98.376796015112191, 19.890172800461784 ], [ -98.377335524131993, 19.890904741616044 ], [ -98.377384022190199, 19.891789692418676 ], [ -98.376720770367371, 19.892475895688708 ], [ -98.375888502886951, 19.892897872297429 ], [ -98.372157152598476, 19.893736830199654 ], [ -98.371307379014084, 19.894118814286482 ], [ -98.370667123641383, 19.89481275804458 ], [ -98.37045387019424, 19.895692698531342 ], [ -98.370704130974971, 19.898393768853232 ], [ -98.370672899005484, 19.899296960805916 ], [ -98.370501378190028, 19.900187401954625 ], [ -98.370130134780283, 19.901019354415329 ], [ -98.369556378600947, 19.901752540647905 ], [ -98.368783604871922, 19.902269278232037 ], [ -98.36704331513414, 19.903035226530619 ], [ -98.364297992021648, 19.90384968788814 ], [ -98.362409192919372, 19.904127430401932 ], [ -98.359507124922999, 19.904353929684511 ], [ -98.35762983154622, 19.904165187782912 ], [ -98.354947497405661, 19.903320769536187 ], [ -98.348798069639912, 19.900721975663533 ], [ -98.346054486637286, 19.899927060538243 ], [ -98.342278403527956, 19.899423598791316 ], [ -98.340511847134024, 19.898694672827325 ], [ -98.339767065169951, 19.898150453510397 ], [ -98.338560779105023, 19.896728813865771 ], [ -98.338227278075337, 19.895888370869933 ], [ -98.338008759296159, 19.894088737390028 ], [ -98.338176514874363, 19.89228910391007 ], [ -98.338536762590635, 19.89051098178674 ], [ -98.339151006323036, 19.888803349108272 ], [ -98.340310024407628, 19.886308256774612 ], [ -98.340802535463823, 19.885537553176228 ], [ -98.34204105856179, 19.884168896872634 ] ] ] } },
{ "type": "Feature", "properties": { "Cobertura": "El Tejocotal" }, "geometry": { "type": "Polygon", "coordinates": [ [ [ -98.142810446403274, 20.140149349234015 ], [ -98.142583196403109, 20.140076599233602 ], [ -98.142408196402897, 20.140104349234029 ], [ -98.142202946402747, 20.140132099234005 ], [ -98.141853946402307, 20.140094599233947 ], [ -98.141566196402081, 20.139964099233737 ], [ -98.141376446401807, 20.139920099233741 ], [ -98.141103446401615, 20.139839849233397 ], [ -98.140845196401429, 20.139860099233665 ], [ -98.140526446401083, 20.13983709923351 ], [ -98.140048196400727, 20.13981334923373 ], [ -98.139842696400478, 20.139869599233769 ], [ -98.139743446400374, 20.13995509923372 ], [ -98.139591696400203, 20.139961599233647 ], [ -98.139469946400055, 20.140004099233884 ], [ -98.139279446399925, 20.140089099233595 ], [ -98.138899696399605, 20.140123099233517 ], [ -98.138664446399304, 20.140071849233955 ], [ -98.13838419639913, 20.1399700992337 ], [ -98.138164446398903, 20.139861349233595 ], [ -98.137944946398733, 20.139731349233465 ], [ -98.137846946398625, 20.139594599233344 ], [ -98.137855446398646, 20.139436849233313 ], [ -98.137947446398712, 20.139272349233003 ], [ -98.138024196398703, 20.139143599233016 ], [ -98.137894946398674, 20.139142849232968 ], [ -98.137150696397995, 20.139146349232849 ], [ -98.136998946397853, 20.139131349233121 ], [ -98.136832446397733, 20.139030099233093 ], [ -98.136665196397587, 20.139065099232909 ], [ -98.136459446397268, 20.139214849233245 ], [ -98.136094696396981, 20.139227349232989 ], [ -98.135972946396947, 20.139298349232778 ], [ -98.135706696396696, 20.139376099233257 ], [ -98.135493946396451, 20.139396599233148 ], [ -98.13525094639617, 20.139366599233231 ], [ -98.134916946395904, 20.139350599233303 ], [ -98.134650946395567, 20.13939234923313 ], [ -98.134544196395524, 20.139463599233352 ], [ -98.134399696395505, 20.139505849233359 ], [ -98.134216946395156, 20.139605349233378 ], [ -98.134064446395072, 20.139690849233588 ], [ -98.133943196394895, 20.139682849233409 ], [ -98.133836946394823, 20.139660849233309 ], [ -98.133639446394653, 20.13965984923346 ], [ -98.133442196394512, 20.139644599233428 ], [ -98.133176196394288, 20.139686349233465 ], [ -98.133062446394192, 20.139635599233635 ], [ -98.132941196394029, 20.139584849233458 ], [ -98.132842696394007, 20.1395700992333 ], [ -98.132834446393986, 20.139663099233577 ], [ -98.132818446393927, 20.139813599233573 ], [ -98.132552446393589, 20.139841099233706 ], [ -98.132369946393567, 20.139883349233667 ], [ -98.132142196393332, 20.139889349233801 ], [ -98.132020446393241, 20.139924599233716 ], [ -98.131966946393121, 20.140010349233819 ], [ -98.131814446392923, 20.140110099233755 ], [ -98.131715196392832, 20.14020284923398 ], [ -98.131548446392728, 20.140130099234003 ], [ -98.13154919639274, 20.139986849233757 ], [ -98.131565946392882, 20.13973584923351 ], [ -98.131514446392799, 20.139441599233372 ], [ -98.131439696392675, 20.139190099232913 ], [ -98.131365446392707, 20.138917349232774 ], [ -98.131229446392453, 20.138780349232633 ], [ -98.130979446392274, 20.138685849232594 ], [ -98.130751696392068, 20.138634599232457 ], [ -98.130615696391928, 20.138540599232556 ], [ -98.13047969639166, 20.138403599232142 ], [ -98.130343446391592, 20.13830259923219 ], [ -98.130260946391516, 20.138137099232161 ], [ -98.130140196391352, 20.138000349232055 ], [ -98.129973946391203, 20.137856099231819 ], [ -98.12983694639118, 20.13789134923195 ], [ -98.129844446391203, 20.137927099231771 ], [ -98.129949946391321, 20.138063849231727 ], [ -98.130010446391367, 20.13813609923211 ], [ -98.130009946391397, 20.138193349232132 ], [ -98.12989569639123, 20.138257349232159 ], [ -98.12991019639118, 20.138386599232131 ], [ -98.12989444639112, 20.138486849232336 ], [ -98.129696446391023, 20.13859334923243 ], [ -98.129643446390958, 20.138550099232383 ], [ -98.129559946390899, 20.13854984923238 ], [ -98.129514696390885, 20.138506349232312 ], [ -98.129439446390691, 20.138384099232329 ], [ -98.129273196390628, 20.138247099232192 ], [ -98.128980446390358, 20.137607349231676 ], [ -98.128642196390047, 20.136967349230911 ], [ -98.128477196389838, 20.136607849230678 ], [ -98.128304446389734, 20.136255599230328 ], [ -98.128217446389712, 20.135502099229605 ], [ -98.128205946389627, 20.134849349228922 ], [ -98.128164446389704, 20.134103349228301 ], [ -98.128158696389491, 20.133794849228082 ], [ -98.128455946389906, 20.133581349227693 ], [ -98.128554446390027, 20.133631849227861 ], [ -98.129261946390585, 20.133377349227665 ], [ -98.129543196390912, 20.133349849227532 ], [ -98.129915696391294, 20.133258599227453 ], [ -98.130220196391505, 20.133116599227527 ], [ -98.130433446391706, 20.133017349227288 ], [ -98.130722946392055, 20.132875349227156 ], [ -98.130966696392278, 20.13270434922692 ], [ -98.131249446392431, 20.132382849226602 ], [ -98.131570946392728, 20.131947099226238 ], [ -98.131831196392909, 20.13154659922602 ], [ -98.131916696393091, 20.13121709922574 ], [ -98.131963696393072, 20.130916099225324 ], [ -98.131994696393136, 20.130808849225172 ], [ -98.132063446393261, 20.130751849225298 ], [ -98.131957446393145, 20.130715349225234 ], [ -98.131912446393216, 20.130593099225102 ], [ -98.131883946393103, 20.130256099224678 ], [ -98.131794196393002, 20.129990099224546 ], [ -98.131719446392935, 20.129796099224162 ], [ -98.131667196392769, 20.129602349224058 ], [ -98.131638696392827, 20.129272099223801 ], [ -98.131579946392705, 20.128899099223482 ], [ -98.131588696392811, 20.128691099222937 ], [ -98.131491696392757, 20.128382099222947 ], [ -98.131272696392486, 20.128158849222764 ], [ -98.131144946392411, 20.12792134922249 ], [ -98.131146446392279, 20.127684849222213 ], [ -98.131223696392496, 20.127426849222026 ], [ -98.131080446392332, 20.127232599221959 ], [ -98.130921946392121, 20.127066849221769 ], [ -98.130946196392273, 20.126780099221566 ], [ -98.131120946392414, 20.126788099221478 ], [ -98.131455446392707, 20.126725349221427 ], [ -98.131653446392789, 20.126618599221235 ], [ -98.131806696392957, 20.126375599221099 ], [ -98.131846196393013, 20.126088849220878 ], [ -98.132059946393298, 20.125896349220618 ], [ -98.13222019639332, 20.125710599220376 ], [ -98.132433446393549, 20.125618349220421 ], [ -98.132614946393815, 20.125748349220483 ], [ -98.132743446393789, 20.12584934922052 ], [ -98.133038696394152, 20.12603009922071 ], [ -98.133410446394521, 20.126089349220848 ], [ -98.133530946394572, 20.12626209922108 ], [ -98.133765446394747, 20.126442599221111 ], [ -98.134060696395153, 20.126601849221398 ], [ -98.134318946395339, 20.126588599221265 ], [ -98.134585446395604, 20.126439349221123 ], [ -98.134896696395799, 20.126462349221164 ], [ -98.135176946396086, 20.126564099221177 ], [ -98.135457946396329, 20.12657284922123 ], [ -98.135792196396764, 20.126552849221433 ], [ -98.136308696397236, 20.126519599221272 ], [ -98.136772196397629, 20.126464349221127 ], [ -98.137182696398028, 20.126401849221139 ], [ -98.137593196398441, 20.126296349221153 ], [ -98.137768196398625, 20.126239849221083 ], [ -98.137920196398611, 20.126226099221004 ], [ -98.138186196398848, 20.126198849221026 ], [ -98.138596946399304, 20.126064599220776 ], [ -98.138840446399442, 20.125965349220515 ], [ -98.139136946399773, 20.125866349220665 ], [ -98.139334946400069, 20.125802849220548 ], [ -98.13946444640014, 20.125731599220543 ], [ -98.139548946400154, 20.125552849220373 ], [ -98.139549696400138, 20.125387849220189 ], [ -98.139626196400229, 20.125295099220104 ], [ -98.139801446400512, 20.125195349220036 ], [ -98.139938696400549, 20.125059849219852 ], [ -98.139879446400471, 20.124822849219438 ], [ -98.139880696400439, 20.124564599219404 ], [ -98.139920696400424, 20.124206349219072 ], [ -98.140043696400625, 20.123905599218883 ], [ -98.14004494640065, 20.123697599218705 ], [ -98.140114196400631, 20.123547349218324 ], [ -98.140063196400604, 20.123145599218173 ], [ -98.140139946400737, 20.123002349217828 ], [ -98.14024769640082, 20.122730349217719 ], [ -98.140324946400938, 20.122458349217347 ], [ -98.140447446401026, 20.122308349217256 ], [ -98.14050944640104, 20.122079099217146 ], [ -98.140488946401149, 20.121627099216667 ], [ -98.140504946401038, 20.121483849216524 ], [ -98.140492446401055, 20.12101759921616 ], [ -98.14035719640097, 20.120729849215834 ], [ -98.140199446400885, 20.120442349215704 ], [ -98.140139696400794, 20.120255599215227 ], [ -98.139958946400526, 20.119974849215119 ], [ -98.139694696400298, 20.119715599214747 ], [ -98.139437696400023, 20.119470349214545 ], [ -98.139370446399951, 20.119283599214494 ], [ -98.139212196399967, 20.119082099214125 ], [ -98.139227946399913, 20.11897459921429 ], [ -98.139387946400078, 20.118882099214037 ], [ -98.139615946400298, 20.118832849214076 ], [ -98.139745446400369, 20.118726099214118 ], [ -98.139935946400598, 20.118626599213883 ], [ -98.139890946400641, 20.118525849213537 ], [ -98.139777696400486, 20.118410599213604 ], [ -98.139655446400425, 20.118531849213813 ], [ -98.139412446400087, 20.118559349213861 ], [ -98.139230196399865, 20.118544099213768 ], [ -98.138888446399491, 20.118571099213995 ], [ -98.138584696399377, 20.118569599213995 ], [ -98.138524196399246, 20.118497599213679 ], [ -98.138463196399158, 20.118561849213933 ], [ -98.13837969639907, 20.118540099213828 ], [ -98.138319696399066, 20.118432099213415 ], [ -98.138289946399055, 20.118310099213605 ], [ -98.138153196398946, 20.118323849213557 ], [ -98.138084696398892, 20.118359349213435 ], [ -98.138153696398845, 20.118223349213608 ], [ -98.138306446399071, 20.118073599213158 ], [ -98.138596196399376, 20.117845349213248 ], [ -98.138923946399657, 20.117624599212903 ], [ -98.139235946399879, 20.117489849213001 ], [ -98.139524446400159, 20.117491349212589 ], [ -98.139858446400538, 20.117521599212925 ], [ -98.140290946400825, 20.117581099212991 ], [ -98.140602446401147, 20.11753959921289 ], [ -98.140678946401266, 20.117446849212751 ], [ -98.140884446401415, 20.117333099212736 ], [ -98.141120196401673, 20.117262349212556 ], [ -98.141591196402175, 20.117243099212391 ], [ -98.141886946402337, 20.117287599212698 ], [ -98.142054196402526, 20.117288349212625 ], [ -98.142131196402616, 20.117080849212421 ], [ -98.142269196402708, 20.116823349212119 ], [ -98.142369446402782, 20.116551349212031 ], [ -98.142431696402923, 20.116271849211554 ], [ -98.142470696402924, 20.11606409921146 ], [ -98.14251044640298, 20.115755849211194 ], [ -98.14268594640312, 20.115591849210936 ], [ -98.142868196403214, 20.115599849211179 ], [ -98.142876196403279, 20.115492349210832 ], [ -98.143012946403431, 20.115492849210963 ], [ -98.14303544640336, 20.115550349211116 ], [ -98.143072446403423, 20.115729849211199 ], [ -98.143216196403628, 20.115831099211174 ], [ -98.143260696403644, 20.116039099211513 ], [ -98.143288446403574, 20.116484099212013 ], [ -98.143407946403855, 20.116886349212056 ], [ -98.143595946403892, 20.11721709921272 ], [ -98.143821946404103, 20.117548099212808 ], [ -98.144002446404443, 20.117843099213282 ], [ -98.144069696404387, 20.118036849213482 ], [ -98.144205696404583, 20.118166849213313 ], [ -98.144433446404747, 20.118182099213289 ], [ -98.144638696404911, 20.118161599213241 ], [ -98.144950196405233, 20.118084349213213 ], [ -98.145254446405545, 20.117999599213366 ], [ -98.145573446405834, 20.117972599213186 ], [ -98.14596844640613, 20.117960099213231 ], [ -98.146325696406549, 20.117904349213259 ], [ -98.146652446406918, 20.117834349213105 ], [ -98.147154696407213, 20.11765034921283 ], [ -98.147421196407549, 20.117529599212812 ], [ -98.147945946408015, 20.117338599212783 ], [ -98.148311446408442, 20.117153849212482 ], [ -98.148532446408595, 20.116997099212313 ], [ -98.148715946408743, 20.116782849212203 ], [ -98.14894519640896, 20.116504099211816 ], [ -98.1492271964092, 20.116333349211729 ], [ -98.149508446409499, 20.116248599211609 ], [ -98.149699446409599, 20.116034599211606 ], [ -98.1499969464099, 20.115792099211259 ], [ -98.150301946410281, 20.115535349211076 ], [ -98.150568696410559, 20.115357349210992 ], [ -98.150865446410677, 20.115229599210398 ], [ -98.151184696410951, 20.115202599210729 ], [ -98.151511196411363, 20.115182599210669 ], [ -98.151661946411579, 20.115369849210907 ], [ -98.151805946411628, 20.115449349210927 ], [ -98.152017946411817, 20.115565099210883 ], [ -98.152124196411876, 20.115536849211001 ], [ -98.15214019641185, 20.115400849210964 ], [ -98.15234519641217, 20.115416099210748 ], [ -98.152519946412326, 20.115402599210732 ], [ -98.152770446412561, 20.115410849210956 ], [ -98.153020946412738, 20.115419349210661 ], [ -98.15324844641286, 20.11547059921082 ], [ -98.153361446412987, 20.115628849211205 ], [ -98.153474696413184, 20.115751349211195 ], [ -98.153670696413315, 20.116024849211424 ], [ -98.15366969641326, 20.116225599211763 ], [ -98.153660196413327, 20.116548349211978 ], [ -98.153666446413254, 20.116828099212146 ], [ -98.153847946413563, 20.116950849212195 ], [ -98.153869946413607, 20.117108849212119 ], [ -98.153983446413662, 20.117145099212639 ], [ -98.153999446413764, 20.117009099212368 ], [ -98.154196946413876, 20.117002849212472 ], [ -98.154356946413884, 20.116917599212265 ], [ -98.15455419641421, 20.116911349212302 ], [ -98.154750696414354, 20.117077099212505 ], [ -98.154999696414563, 20.117372349212861 ], [ -98.155249196414715, 20.117581599212873 ], [ -98.155483196414977, 20.117833849213206 ], [ -98.15551269641503, 20.1180130992134 ], [ -98.155602696415144, 20.118243099213398 ], [ -98.155691696415303, 20.118630849213943 ], [ -98.155743196415187, 20.118939599214244 ], [ -98.155627946415294, 20.119182849214436 ], [ -98.15541369641501, 20.119490099214669 ], [ -98.155351696414954, 20.11971934921495 ], [ -98.155487446415052, 20.119877849215175 ], [ -98.155851696415382, 20.119929849214746 ], [ -98.156110196415668, 20.119852099215151 ], [ -98.156543446415967, 20.119768099214888 ], [ -98.156832696416302, 20.119676349214973 ], [ -98.157029696416444, 20.119727349214905 ], [ -98.157211446416611, 20.119807099214974 ], [ -98.157301446416753, 20.120044349215178 ], [ -98.157399196416762, 20.120224099215118 ], [ -98.157413446416925, 20.120396099215544 ], [ -98.157457446416899, 20.120668849215747 ], [ -98.157508946416996, 20.120984849215912 ], [ -98.157469696416811, 20.121214099216282 ], [ -98.157035446416501, 20.121506099216628 ], [ -98.15696669641639, 20.121584599216558 ], [ -98.156783696416255, 20.121727099216759 ], [ -98.156691446416232, 20.121913349216726 ], [ -98.15652344641596, 20.12211334921707 ], [ -98.156507196416072, 20.122285349217311 ], [ -98.156384446415942, 20.122535849217634 ], [ -98.156208946415717, 20.12269259921765 ], [ -98.155897196415467, 20.122798849217688 ], [ -98.155683696415267, 20.122955599217882 ], [ -98.155531196415112, 20.123069599218145 ], [ -98.155476696415079, 20.123320349218279 ], [ -98.155339446414828, 20.123434349218492 ], [ -98.155216446414912, 20.123684849218488 ], [ -98.154941446414639, 20.124006349218917 ], [ -98.154719946414289, 20.124263349218893 ], [ -98.154559946414224, 20.124370099219231 ], [ -98.154422196413989, 20.124527349219303 ], [ -98.154276446413931, 20.124835099219744 ], [ -98.154221946413855, 20.125093099219907 ], [ -98.154106946413762, 20.125286099220123 ], [ -98.153908696413595, 20.125428599220253 ], [ -98.153839196413514, 20.125657849220456 ], [ -98.15389794641365, 20.126023849220768 ], [ -98.154010196413722, 20.126304099221066 ], [ -98.15412294641375, 20.126555599221362 ], [ -98.154197446413832, 20.126814099221626 ], [ -98.154105446413794, 20.126985849221665 ], [ -98.153937446413565, 20.127150099221769 ], [ -98.153882946413546, 20.12737934922211 ], [ -98.153570196413298, 20.127643099222261 ], [ -98.153302946413064, 20.127950349222576 ], [ -98.15323344641287, 20.128172349222652 ], [ -98.153140946412819, 20.128408349222973 ], [ -98.152934196412659, 20.128744599223285 ], [ -98.152514196412298, 20.12918009922376 ], [ -98.152155446411868, 20.129522599224089 ], [ -98.151834446411598, 20.129894099224462 ], [ -98.151467946411316, 20.13024359922473 ], [ -98.151254946411072, 20.130350099224824 ], [ -98.150949696410905, 20.130621349225212 ], [ -98.150712946410678, 20.130849599225328 ], [ -98.150552196410402, 20.131107099225503 ], [ -98.150459196410381, 20.131436599225914 ], [ -98.150579196410575, 20.131745599225855 ], [ -98.150768196410596, 20.131904099226265 ], [ -98.150980196410984, 20.132005599226456 ], [ -98.151276446411131, 20.131992599226301 ], [ -98.151572946411349, 20.131936849226253 ], [ -98.15179319641156, 20.131909099226142 ], [ -98.151921446411706, 20.132053099226436 ], [ -98.15222544641199, 20.132040349226333 ], [ -98.152362446412042, 20.131954849226183 ], [ -98.152484696412245, 20.131847849226027 ], [ -98.15249869641228, 20.132070349226428 ], [ -98.152293196412117, 20.132141099226466 ], [ -98.15220169641195, 20.132205099226631 ], [ -98.152147196412031, 20.13247034922685 ], [ -98.152168696412033, 20.132671099226613 ], [ -98.152244446412013, 20.132728849227032 ], [ -98.152524946412271, 20.132809099227057 ], [ -98.152706446412409, 20.132931849227198 ], [ -98.152849946412559, 20.133090349227444 ], [ -98.153213946412848, 20.13319259922746 ], [ -98.153540446413203, 20.133215599227444 ], [ -98.153760446413415, 20.133223849227413 ], [ -98.153759696413417, 20.133396099227724 ], [ -98.153857196413639, 20.133582849227853 ], [ -98.153940196413643, 20.133690849227865 ], [ -98.153946946413612, 20.133841599228123 ], [ -98.153862946413483, 20.133948849228116 ], [ -98.153755696413469, 20.134098849227989 ], [ -98.153528446413276, 20.134040349228222 ], [ -98.153376196413035, 20.13409709922837 ], [ -98.153002946412755, 20.134281599228441 ], [ -98.15275119641241, 20.134524349228627 ], [ -98.15256019641231, 20.134731349228932 ], [ -98.152384196412171, 20.134974349229132 ], [ -98.152276196412032, 20.135268099229421 ], [ -98.15212319641185, 20.135511099229568 ], [ -98.152053196411757, 20.135811849229647 ], [ -98.15188469641167, 20.136076599230009 ], [ -98.151845446411727, 20.136291599230258 ], [ -98.1519966964117, 20.136428599230555 ], [ -98.152200946412009, 20.13657284923066 ], [ -98.152162446411936, 20.136687599230701 ], [ -98.152085696411859, 20.136801849230928 ], [ -98.151857946411695, 20.136793599230742 ], [ -98.151614696411386, 20.136835349230832 ], [ -98.151470196411296, 20.136899349230976 ], [ -98.151302946411164, 20.136941599230727 ], [ -98.151081946410883, 20.137076849231143 ], [ -98.150913696410726, 20.137305349231216 ], [ -98.150882446410776, 20.13745584923138 ], [ -98.151102446410931, 20.137507099231478 ], [ -98.151368196411184, 20.13750134923146 ], [ -98.151519446411427, 20.137602349231667 ], [ -98.15172419641155, 20.137689349231703 ], [ -98.151996696411686, 20.137848599231752 ], [ -98.152254196411988, 20.13797884923185 ], [ -98.152489446412233, 20.138015849231948 ], [ -98.152747446412462, 20.138017099231803 ], [ -98.153005946412691, 20.137975349231947 ], [ -98.153181446412873, 20.137832849231689 ], [ -98.153363696413095, 20.137840849231768 ], [ -98.153248946413015, 20.137969349232005 ], [ -98.15310394641277, 20.138119349231911 ], [ -98.152860446412575, 20.138218599232218 ], [ -98.152510446412293, 20.13831009923231 ], [ -98.152259946412116, 20.13832309923232 ], [ -98.152047196411857, 20.138336599232129 ], [ -98.151781196411605, 20.138392599232493 ], [ -98.151598946411511, 20.138377349232311 ], [ -98.151530946411384, 20.13828384923222 ], [ -98.151408446411168, 20.138469599232291 ], [ -98.151301446411253, 20.138591099232354 ], [ -98.151126946410983, 20.13859034923258 ], [ -98.15102844641082, 20.138546849232593 ], [ -98.150838946410801, 20.138474099232337 ], [ -98.150708946410589, 20.138667099232681 ], [ -98.150571946410423, 20.138680849232578 ], [ -98.150267446410126, 20.138851599232698 ], [ -98.149993196410037, 20.138986349233061 ], [ -98.149772446409685, 20.139114349232869 ], [ -98.149498446409496, 20.139184849233015 ], [ -98.14917919640915, 20.139240599232881 ], [ -98.148866946408873, 20.139425599233235 ], [ -98.148470696408481, 20.139660349233552 ], [ -98.147976446408038, 20.139794349233608 ], [ -98.147786446407835, 20.139807849233623 ], [ -98.147520446407654, 20.139856599233749 ], [ -98.147209696407273, 20.139761849233533 ], [ -98.146723446406781, 20.13977384923362 ], [ -98.146275446406463, 20.139757349233605 ], [ -98.146153446406331, 20.139850099233332 ], [ -98.146023946406274, 20.139942599233706 ], [ -98.145340446405555, 20.139946599233749 ], [ -98.145195696405466, 20.140010349233922 ], [ -98.145058696405272, 20.140110099233752 ], [ -98.144753696405047, 20.140302349234151 ], [ -98.144570946404897, 20.140423349234034 ], [ -98.14425869640462, 20.140586849234232 ], [ -98.143932196404194, 20.140549349234451 ], [ -98.143477196403737, 20.140461099234155 ], [ -98.143219696403733, 20.140323599234069 ], [ -98.142810446403274, 20.140149349234015 ] ] ] } },
{ "type": "Feature", "properties": { "Cobertura": "El Tejocotal" }, "geometry": { "type": "Polygon", "coordinates": [ [ [ -98.130925287056812, 20.173901724902311 ], [ -98.130946375155034, 20.173787403130582 ], [ -98.130961196392136, 20.173786849265255 ], [ -98.131082446392398, 20.173830349265202 ], [ -98.131234196392384, 20.173859849265174 ], [ -98.131370946392622, 20.17383909926534 ], [ -98.131500946392748, 20.173710599265117 ], [ -98.131592946392786, 20.173567599265045 ], [ -98.131608696392817, 20.173438599265076 ], [ -98.131557840779493, 20.173365693784291 ], [ -98.131610795899832, 20.173333023206773 ], [ -98.13165856056952, 20.173219717322372 ], [ -98.131677374750836, 20.173065467724467 ], [ -98.13162357228336, 20.172960838763231 ], [ -98.131572814807427, 20.172830765733849 ], [ -98.131493161341595, 20.172676073924542 ], [ -98.131516100008838, 20.172514105570436 ], [ -98.131555327103555, 20.172294251012417 ], [ -98.131577594535457, 20.172242752850259 ], [ -98.131615446392843, 20.172240849263794 ], [ -98.1316996963929, 20.172112099263472 ], [ -98.13168035962444, 20.171974593422757 ], [ -98.131722556499099, 20.171842383749176 ], [ -98.131753830026625, 20.171664703342714 ], [ -98.131731721867936, 20.171514973328438 ], [ -98.13164666588267, 20.171345282700145 ], [ -98.131542278144124, 20.17123332811838 ], [ -98.131514412508096, 20.171186107378727 ], [ -98.131575696392829, 20.171186349262904 ], [ -98.13152294639265, 20.171085849262735 ], [ -98.131599446392741, 20.171007099262741 ], [ -98.131744196392944, 20.170907599262456 ], [ -98.131880946393068, 20.170915349262518 ], [ -98.132115946393242, 20.170988349262615 ], [ -98.132343946393448, 20.17098934926258 ], [ -98.132556446393707, 20.171004849262602 ], [ -98.132753196393907, 20.171120599262782 ], [ -98.132813446393925, 20.171249849262949 ], [ -98.132714196393806, 20.171335349262939 ], [ -98.132614446393745, 20.171521349263219 ], [ -98.132597946393773, 20.171722099263331 ], [ -98.132642446393703, 20.171951849263451 ], [ -98.132793196393905, 20.172131849263639 ], [ -98.133058446394216, 20.172240849263755 ], [ -98.133407946394442, 20.172249599263861 ], [ -98.133544196394695, 20.172322099264058 ], [ -98.133672446394755, 20.17248059926408 ], [ -98.133824196394812, 20.172495599264046 ], [ -98.133930946395012, 20.172438849264012 ], [ -98.133946946394971, 20.172288349263724 ], [ -98.133834696394885, 20.171986349263481 ], [ -98.13373669639472, 20.171835349263475 ], [ -98.133607946394605, 20.171770099263398 ], [ -98.133570946394627, 20.171605099263214 ], [ -98.133503446394627, 20.17146134926287 ], [ -98.133328696394443, 20.171438849263176 ], [ -98.133299446394318, 20.171252349262854 ], [ -98.133262196394284, 20.171108599262798 ], [ -98.133255446394216, 20.170972349262549 ], [ -98.133013446394159, 20.170777599262472 ], [ -98.132824696393925, 20.170590099262387 ], [ -98.132711196393799, 20.170482099262411 ], [ -98.132655203200699, 20.170439964182187 ], [ -98.132702659717893, 20.170369195021948 ], [ -98.132709341122165, 20.170178396990732 ], [ -98.132584372722704, 20.170019651410698 ], [ -98.132432880555214, 20.169924759696553 ], [ -98.132315094134256, 20.169802859242072 ], [ -98.132272611117543, 20.169747149828069 ], [ -98.132328446393487, 20.169662599261457 ], [ -98.132329446393541, 20.169454599261329 ], [ -98.132311727009039, 20.169383721807655 ], [ -98.132369628334743, 20.16924854008089 ], [ -98.132400145658039, 20.169026935852244 ], [ -98.132324230522627, 20.168827170940688 ], [ -98.132231968149554, 20.168651572410013 ], [ -98.132140894836638, 20.168427063540072 ], [ -98.132092720117825, 20.168259933589695 ], [ -98.132116196393198, 20.168212599259991 ], [ -98.132253446393463, 20.168084349260056 ], [ -98.132262196393526, 20.167883599259781 ], [ -98.132481696393626, 20.168049599259636 ], [ -98.132534196393692, 20.168164599259715 ], [ -98.132540196393578, 20.168422849260153 ], [ -98.132630696393676, 20.168581099260479 ], [ -98.132675196393777, 20.168767599260622 ], [ -98.132811696393972, 20.168775599260528 ], [ -98.132810696393904, 20.168954849260842 ], [ -98.132908946393982, 20.169070099260843 ], [ -98.133006946394076, 20.169185349261106 ], [ -98.13322719639433, 20.169207849261038 ], [ -98.133256946394368, 20.169315599260774 ], [ -98.133225196394335, 20.169552099261423 ], [ -98.13343744639451, 20.169639349261338 ], [ -98.133596946394732, 20.169647099261446 ], [ -98.13378669639475, 20.16964809926116 ], [ -98.133778696394884, 20.169748599261272 ], [ -98.13378569639481, 20.169863349261743 ], [ -98.133716696394856, 20.169956099261817 ], [ -98.133670446394774, 20.170099349261555 ], [ -98.133707696394822, 20.170221599261872 ], [ -98.133851446395013, 20.170329849262227 ], [ -98.134056196395079, 20.170366599261975 ], [ -98.13429144639521, 20.170432349262107 ], [ -98.134404696395393, 20.170547599262235 ], [ -98.134417946395502, 20.17091359926248 ], [ -98.134576196395599, 20.171107849262771 ], [ -98.134681946395645, 20.171216099262985 ], [ -98.134718946395566, 20.171409849263004 ], [ -98.134725696395606, 20.171546099263129 ], [ -98.134823446395799, 20.171747349263473 ], [ -98.13481494639575, 20.171912349263604 ], [ -98.134890946395871, 20.171912849263503 ], [ -98.134891196395827, 20.171848099263482 ], [ -98.134929696395929, 20.17176959926315 ], [ -98.135074196396062, 20.171727099263435 ], [ -98.135339946396286, 20.171728599263332 ], [ -98.135484946396403, 20.171614349263059 ], [ -98.135599696396483, 20.171493099263213 ], [ -98.13565344639656, 20.171371349263158 ], [ -98.135791446396752, 20.17112834926289 ], [ -98.135814946396664, 20.171027849262707 ], [ -98.135785696396667, 20.170819849262301 ], [ -98.135869696396753, 20.170719849262365 ], [ -98.135945946396859, 20.170670099262441 ], [ -98.135954696396766, 20.170447599262115 ], [ -98.136288946397158, 20.170427849261905 ], [ -98.136372946397216, 20.170370849262035 ], [ -98.136434446397345, 20.170227849261931 ], [ -98.136466196397322, 20.169991099261633 ], [ -98.136504696397338, 20.169883849261641 ], [ -98.13652844639735, 20.169711849261439 ], [ -98.136582196397342, 20.169590099261409 ], [ -98.136507446397331, 20.16940334926116 ], [ -98.136591196397418, 20.169339099261116 ], [ -98.136713196397537, 20.169289599261024 ], [ -98.136834946397713, 20.169232849260894 ], [ -98.136903696397766, 20.169154349260971 ], [ -98.136904696397806, 20.168982099260848 ], [ -98.136813946397623, 20.168881349260591 ], [ -98.136700696397554, 20.168787349260633 ], [ -98.136617696397437, 20.1686723492606 ], [ -98.13664169639749, 20.168450099260561 ], [ -98.136733196397515, 20.16838609926031 ], [ -98.136915446397779, 20.168386849260308 ], [ -98.137105446397953, 20.168359099260194 ], [ -98.137341196398054, 20.168331599260181 ], [ -98.137439696398175, 20.168389349260259 ], [ -98.137614196398474, 20.168383099260247 ], [ -98.137720946398531, 20.168326349260358 ], [ -98.137842946398621, 20.16822659926012 ], [ -98.137957946398799, 20.168026099259698 ], [ -98.137989446398691, 20.167832599259622 ], [ -98.137968696398787, 20.167488349259443 ], [ -98.13784019639867, 20.167380099259351 ], [ -98.137733946398541, 20.167322349259134 ], [ -98.137566946398366, 20.167342849259331 ], [ -98.13741469639821, 20.167399599259351 ], [ -98.137049946397866, 20.16741209925927 ], [ -98.136936196397826, 20.167382849258992 ], [ -98.136921696397835, 20.167260849259208 ], [ -98.136945196397804, 20.167131849258855 ], [ -98.137006696397819, 20.167010349258998 ], [ -98.137106696397879, 20.166774099258795 ], [ -98.13713794639807, 20.166609349258245 ], [ -98.13703219639784, 20.166494099258564 ], [ -98.136903446397696, 20.166428849258384 ], [ -98.136691446397563, 20.166313099258218 ], [ -98.136501696397247, 20.166297849258253 ], [ -98.13624344639706, 20.166275099258112 ], [ -98.136145196396981, 20.166210099258301 ], [ -98.135955196396907, 20.166216349258256 ], [ -98.135689446396611, 20.166193349258027 ], [ -98.135659946396601, 20.166035599257871 ], [ -98.135797446396651, 20.165899849257965 ], [ -98.13595744639683, 20.165793099257858 ], [ -98.136140696397078, 20.165657849257688 ], [ -98.136262946397039, 20.165507599257552 ], [ -98.136172446397154, 20.165399599257473 ], [ -98.135990696396803, 20.165291099257363 ], [ -98.13584669639674, 20.165254599257356 ], [ -98.135588696396553, 20.165196099256924 ], [ -98.135474446396401, 20.165267099257292 ], [ -98.135398196396409, 20.165281099257491 ], [ -98.135238946396143, 20.165230099257265 ], [ -98.135117696396023, 20.165200849257175 ], [ -98.134684946395609, 20.16519159925711 ], [ -98.134669946395633, 20.165126849257284 ], [ -98.134548696395555, 20.165083349256854 ], [ -98.13455744639559, 20.164853849256691 ], [ -98.134581196395658, 20.164689099256762 ], [ -98.134650446395668, 20.164560349256782 ], [ -98.134613196395605, 20.164416599256658 ], [ -98.1344691963956, 20.164329849256543 ], [ -98.134135446395078, 20.16424934925648 ], [ -98.133976446394939, 20.164176849256304 ], [ -98.134000946395034, 20.163890099256001 ], [ -98.133970696394954, 20.163846849256061 ], [ -98.133628946394722, 20.163845349256039 ], [ -98.133575446394687, 20.163909599256076 ], [ -98.133074196394176, 20.163899849256104 ], [ -98.132967946394103, 20.163863599255993 ], [ -98.132648946393829, 20.163861849256026 ], [ -98.132542696393713, 20.163882849255955 ], [ -98.132375446393482, 20.163874849256043 ], [ -98.132178446393382, 20.163795099255953 ], [ -98.131996696393173, 20.163686599255907 ], [ -98.131921446393036, 20.163571349255744 ], [ -98.131853946393022, 20.163420599255531 ], [ -98.131801196393042, 20.163341349255205 ], [ -98.13170319639292, 20.163204599255479 ], [ -98.131620446392787, 20.163082349255347 ], [ -98.13157519639276, 20.162996099255018 ], [ -98.131585196392834, 20.162565599254798 ], [ -98.131372696392532, 20.162564599254917 ], [ -98.131319696392495, 20.162521349254845 ], [ -98.131327946392574, 20.162385099254607 ], [ -98.1315254463928, 20.16237184925458 ], [ -98.131647446392961, 20.162300599254795 ], [ -98.131852446393054, 20.162308849254487 ], [ -98.13205719639312, 20.162381599254708 ], [ -98.132254446393532, 20.162432849254621 ], [ -98.132482196393653, 20.162441099254593 ], [ -98.132550696393693, 20.16240559925475 ], [ -98.132869696393954, 20.162407099254658 ], [ -98.133097946394244, 20.162336599254612 ], [ -98.13329544639447, 20.162330349254493 ], [ -98.133530696394544, 20.162352849254528 ], [ -98.133599696394711, 20.162260099254542 ], [ -98.133683946394754, 20.162109849254428 ], [ -98.133700196394841, 20.161945099254243 ], [ -98.133852946394953, 20.161795099254114 ], [ -98.133906946394944, 20.161623349253951 ], [ -98.133907696394928, 20.16148709925347 ], [ -98.133802196394882, 20.161328599253682 ], [ -98.133612946394635, 20.161205849253573 ], [ -98.133454196394567, 20.161104599253459 ], [ -98.133287446394363, 20.16104634925339 ], [ -98.133173946394251, 20.160959849253235 ], [ -98.13301494639407, 20.160873099253084 ], [ -98.132627696393868, 20.160856849253172 ], [ -98.132482696393637, 20.160963599253375 ], [ -98.132338196393519, 20.160991599253368 ], [ -98.132178696393282, 20.160990849253061 ], [ -98.132179196393324, 20.160926349253106 ], [ -98.132293446393447, 20.160869349253399 ], [ -98.132347196393539, 20.160769349253155 ], [ -98.132400946393545, 20.160647599252989 ], [ -98.132545196393721, 20.160641099253166 ], [ -98.13254569639372, 20.160562349253006 ], [ -98.132553946393756, 20.160454849252837 ], [ -98.132645196393881, 20.160426599252791 ], [ -98.132804696393876, 20.160405849252836 ], [ -98.133063196394133, 20.160392849252858 ], [ -98.133237696394289, 20.160393599252998 ], [ -98.13345769639443, 20.160452099252741 ], [ -98.133654696394657, 20.160524599252884 ], [ -98.133829446394856, 20.160511349252907 ], [ -98.133996946395072, 20.160476099252783 ], [ -98.134102446395175, 20.160591349252933 ], [ -98.134208946395205, 20.160584849252906 ], [ -98.134292946395234, 20.160506349252842 ], [ -98.134444946395419, 20.160471349252948 ], [ -98.134589196395552, 20.160486349252519 ], [ -98.134618946395562, 20.160601099252919 ], [ -98.134710196395659, 20.160587349252925 ], [ -98.134839946395758, 20.160487599252885 ], [ -98.134946696395957, 20.160387599252783 ], [ -98.135061196396009, 20.160287849252647 ], [ -98.135076946395984, 20.160165849252664 ], [ -98.134948696395924, 20.160036099252444 ], [ -98.134842696395737, 20.159949599252471 ], [ -98.134683946395626, 20.15983409925219 ], [ -98.134509696395483, 20.159740099252303 ], [ -98.134381196395395, 20.159653349251993 ], [ -98.134229946395195, 20.159501849251914 ], [ -98.134192946395274, 20.159344099251818 ], [ -98.134216446395271, 20.159236599251681 ], [ -98.134345696395286, 20.159186849251693 ], [ -98.134497946395442, 20.159115849251677 ], [ -98.134619946395588, 20.159023349251608 ], [ -98.134651196395595, 20.158901599251294 ], [ -98.134560696395482, 20.158743349251168 ], [ -98.134478446395448, 20.158542099251008 ], [ -98.13438844639542, 20.158326599250778 ], [ -98.13426044639526, 20.15813934925076 ], [ -98.134170946395145, 20.15783784925058 ], [ -98.134323446395314, 20.157709349250418 ], [ -98.134278696395242, 20.157544349250209 ], [ -98.134096946395218, 20.157464349249988 ], [ -98.133991196395016, 20.157370599249827 ], [ -98.133916446394963, 20.157140849249675 ], [ -98.13373444639484, 20.157096849249765 ], [ -98.133708124538771, 20.157083509448988 ], [ -98.133707160653145, 20.157057914644149 ], [ -98.133653119343307, 20.156785295676745 ], [ -98.133549875672216, 20.156593587417799 ], [ -98.13334387648888, 20.156361713398532 ], [ -98.133120920071732, 20.156176751900578 ], [ -98.132869290110591, 20.155994391228205 ], [ -98.132589739306468, 20.155769652208036 ], [ -98.132440033632548, 20.15557296135238 ], [ -98.132426012752404, 20.155490175210311 ], [ -98.132482696393637, 20.15546984924822 ], [ -98.132672446393784, 20.155470849248307 ], [ -98.132900196394004, 20.155479099248229 ], [ -98.133271946394245, 20.1555525992482 ], [ -98.133340196394443, 20.155603099247998 ], [ -98.133423946394544, 20.155560599248243 ], [ -98.133667446394782, 20.15549009924824 ], [ -98.133971196394938, 20.155470099248195 ], [ -98.134054946395011, 20.155420349248146 ], [ -98.134085946395146, 20.15532709924814 ], [ -98.13399569639509, 20.155168849248042 ], [ -98.133905196394991, 20.155032099247848 ], [ -98.133814696394879, 20.154938599247558 ], [ -98.133997196395043, 20.154896349247586 ], [ -98.134125696395088, 20.155011849247721 ], [ -98.134314696395293, 20.15518484924814 ], [ -98.134602946395503, 20.155236349248071 ], [ -98.134753696395762, 20.155445099248279 ], [ -98.13481294639584, 20.155696349248469 ], [ -98.134865196395864, 20.155890349248562 ], [ -98.134901446395943, 20.156191849248984 ], [ -98.13491594639595, 20.156328099249031 ], [ -98.134884696395929, 20.15647134924918 ], [ -98.134936946395882, 20.156643849249221 ], [ -98.135065946396054, 20.156680349249058 ], [ -98.135217446396155, 20.156731349249412 ], [ -98.135520446396356, 20.156897599249501 ], [ -98.135565696396455, 20.156940849249466 ], [ -98.135716946396599, 20.157034849249602 ], [ -98.135868446396785, 20.157121599249681 ], [ -98.136012946396889, 20.157108099249808 ], [ -98.136134196396966, 20.157158849249793 ], [ -98.136209446397061, 20.157266849249869 ], [ -98.136292696397106, 20.157338849249722 ], [ -98.136413946397212, 20.15738984925002 ], [ -98.136603946397415, 20.15736209924987 ], [ -98.136801196397741, 20.157370099249924 ], [ -98.136876946397663, 20.157413599249995 ], [ -98.136905446397762, 20.157757849250256 ], [ -98.137048946397869, 20.1579163492502 ], [ -98.137260446398017, 20.158139849250666 ], [ -98.137252446398065, 20.158197099250771 ], [ -98.137350446398173, 20.15831959925093 ], [ -98.137593446398427, 20.158356599250965 ], [ -98.137873946398656, 20.158415349250848 ], [ -98.138033696398693, 20.158380349251036 ], [ -98.138041696398759, 20.158308599250923 ], [ -98.138125696398873, 20.158251599250839 ], [ -98.138338946399102, 20.158123599250747 ], [ -98.138484196399233, 20.157937849250249 ], [ -98.13861469639933, 20.157708849250298 ], [ -98.138706946399466, 20.15751584924999 ], [ -98.138761196399514, 20.157315099249907 ], [ -98.138739446399498, 20.157099849249676 ], [ -98.138695696399452, 20.156776849249411 ], [ -98.138537696399183, 20.156496349249089 ], [ -98.138288196399017, 20.156294349248967 ], [ -98.138061446398837, 20.156114099248537 ], [ -98.137895196398716, 20.155955349248554 ], [ -98.137784173337479, 20.155805803596017 ], [ -98.137786577168768, 20.155706767861709 ], [ -98.13777438534467, 20.15566157771444 ], [ -98.137783696398557, 20.155510099248339 ], [ -98.137791446398523, 20.155452849248221 ], [ -98.137852946398681, 20.155331349248115 ], [ -98.137951696398702, 20.15535334924812 ], [ -98.138080446398845, 20.155404099248095 ], [ -98.138187196398931, 20.155325599248176 ], [ -98.138195196398897, 20.155254099247976 ], [ -98.138188446398928, 20.155103349247874 ], [ -98.138264696399091, 20.155060849247764 ], [ -98.138423946399158, 20.155097349247999 ], [ -98.138628196399281, 20.155220349248026 ], [ -98.138832696399547, 20.155321599247966 ], [ -98.13909044639982, 20.155430599248099 ], [ -98.139294946400028, 20.155524849248284 ], [ -98.139599196400255, 20.155440099248249 ], [ -98.139774196400339, 20.155383599247994 ], [ -98.139774946400394, 20.155254599247971 ], [ -98.139783446400358, 20.155089599247841 ], [ -98.13986744640043, 20.155018349247836 ], [ -98.139844946400402, 20.154932099247791 ], [ -98.139937196400467, 20.154739099247603 ], [ -98.140029696400589, 20.15450984924728 ], [ -98.140076696400726, 20.15420884924707 ], [ -98.140093696400712, 20.153879099246815 ], [ -98.140155696400711, 20.153671349246252 ], [ -98.140194946400825, 20.153449349246412 ], [ -98.140165446400729, 20.153291349246359 ], [ -98.14024944640083, 20.153191349246185 ], [ -98.140303696400849, 20.15300509924591 ], [ -98.140411446401075, 20.152747599245799 ], [ -98.140549446401067, 20.152489849245519 ], [ -98.140557946401103, 20.152325099245246 ], [ -98.140657196401293, 20.152253849245252 ], [ -98.140779446401382, 20.152110849245037 ], [ -98.140886446401382, 20.151982349244893 ], [ -98.141121696401697, 20.151990599244694 ], [ -98.141189446401839, 20.152112849245096 ], [ -98.141363446401797, 20.152235849245066 ], [ -98.141469946402012, 20.152236349245165 ], [ -98.141698196402274, 20.15212259924516 ], [ -98.14185844640248, 20.152001349244895 ], [ -98.141957946402385, 20.151844099244858 ], [ -98.141974196402558, 20.151672099244628 ], [ -98.142142196402631, 20.151500849244528 ], [ -98.14233319640276, 20.151308099244179 ], [ -98.142417696402859, 20.151114849244021 ], [ -98.14235019640283, 20.150949599244012 ], [ -98.142199196402771, 20.150783849243805 ], [ -98.142163196402663, 20.15041084924351 ], [ -98.142102946402488, 20.150317349243352 ], [ -98.141944946402504, 20.150065349243143 ], [ -98.141862196402442, 20.149928849243032 ], [ -98.141726196402146, 20.149799099242941 ], [ -98.141635196402163, 20.149748349242902 ], [ -98.141620446402129, 20.149669349242732 ], [ -98.141719446402192, 20.149626849242782 ], [ -98.141802946402308, 20.149641599242567 ], [ -98.141901446402471, 20.149706599242784 ], [ -98.141962696402402, 20.149606599242741 ], [ -98.142077446402666, 20.149463599242623 ], [ -98.142199946402769, 20.149256349242499 ], [ -98.142329696402797, 20.149127849242344 ], [ -98.142436946402924, 20.148977599242176 ], [ -98.142384446402801, 20.148877099241886 ], [ -98.142400946402816, 20.14860459924191 ], [ -98.142522196402965, 20.148684099241876 ], [ -98.142681696403059, 20.148648849241752 ], [ -98.142711696403126, 20.148728099241968 ], [ -98.142817196403158, 20.148871849241875 ], [ -98.142823696403227, 20.149080099242401 ], [ -98.14289869640325, 20.149259599242157 ], [ -98.142897696403267, 20.149438849242525 ], [ -98.142988196403365, 20.149546849242707 ], [ -98.142994946403491, 20.149726349242815 ], [ -98.143077696403537, 20.149862849243114 ], [ -98.143128946403593, 20.150193099243175 ], [ -98.143302196403795, 20.150473599243547 ], [ -98.143506446403848, 20.150625349243654 ], [ -98.14362744640394, 20.15070484924366 ], [ -98.143771696404059, 20.150705349243715 ], [ -98.143923196404344, 20.150777849243809 ], [ -98.143930196404241, 20.150885599243935 ], [ -98.143830946404194, 20.150992599244002 ], [ -98.143701196404024, 20.151135349243887 ], [ -98.143760696404144, 20.151322099244311 ], [ -98.143828196404129, 20.151501849244394 ], [ -98.143971696404279, 20.151631599244464 ], [ -98.144130946404502, 20.151704099244515 ], [ -98.144297946404663, 20.151704849244705 ], [ -98.144449446404849, 20.151770099244857 ], [ -98.144646446404963, 20.151850099244808 ], [ -98.144843946405103, 20.151851099244958 ], [ -98.145102196405404, 20.151845099244738 ], [ -98.145337946405604, 20.151817599244808 ], [ -98.145528196405692, 20.151746849244617 ], [ -98.14572619640596, 20.151647349244509 ], [ -98.14587769640606, 20.151683849244332 ], [ -98.145954196406251, 20.151612599244732 ], [ -98.146143946406269, 20.151627849244562 ], [ -98.146295696406497, 20.151628599244606 ], [ -98.146515446406653, 20.151715599244742 ], [ -98.14659919640674, 20.151694599244394 ], [ -98.146811696406957, 20.151724349244763 ], [ -98.146918446407071, 20.151667349244597 ], [ -98.147033446407264, 20.151467099244414 ], [ -98.1470419464071, 20.151266349244459 ], [ -98.147118446407219, 20.151166349244182 ], [ -98.147241196407279, 20.150944599243978 ], [ -98.147264446407405, 20.150844349243595 ], [ -98.147340946407468, 20.150772849243818 ], [ -98.147418446407556, 20.150493599243557 ], [ -98.147518446407659, 20.150257349243414 ], [ -98.147519696407684, 20.150027849243106 ], [ -98.147641696407803, 20.149913849243038 ], [ -98.147703196407747, 20.149806349242866 ], [ -98.147627946407638, 20.149648349242781 ], [ -98.147644696407795, 20.149390349242612 ], [ -98.147721196407716, 20.149261599242411 ], [ -98.147722946407796, 20.148945849242246 ], [ -98.147905946407946, 20.148803349241991 ], [ -98.148111446408109, 20.14872534924196 ], [ -98.148309696408333, 20.148583099241932 ], [ -98.148424446408569, 20.148440099241554 ], [ -98.148584196408606, 20.148383599241292 ], [ -98.148788696408843, 20.148484849241733 ], [ -98.149024196409044, 20.148471599241716 ], [ -98.149144696409095, 20.148658849241912 ], [ -98.149288196409202, 20.14881009924196 ], [ -98.14947794640949, 20.148818099241957 ], [ -98.14959319640964, 20.148582099241786 ], [ -98.149731196409661, 20.148338849241544 ], [ -98.149868696409783, 20.148203099241485 ], [ -98.149991196409843, 20.147988599241177 ], [ -98.150144446410025, 20.147745599241034 ], [ -98.150145696409993, 20.147523099240885 ], [ -98.150221946410213, 20.147451849240785 ], [ -98.150321446410146, 20.147323349240637 ], [ -98.150481946410395, 20.147130349240072 ], [ -98.150596446410447, 20.147030599240409 ], [ -98.150658696410517, 20.146751099239996 ], [ -98.150796446410752, 20.146565349239552 ], [ -98.150880446410739, 20.146486849239785 ], [ -98.150979946410843, 20.146322349239764 ], [ -98.151147446410889, 20.146265849239658 ], [ -98.151268446411081, 20.146323599239679 ], [ -98.151488946411405, 20.14631759923968 ], [ -98.151648196411386, 20.146318349239763 ], [ -98.151747446411505, 20.146232849239507 ], [ -98.151815196411576, 20.146369349239727 ], [ -98.151951696411814, 20.146370099239753 ], [ -98.152293446412102, 20.146407599239474 ], [ -98.15261944641243, 20.146509599239963 ], [ -98.1527941964126, 20.146496099239869 ], [ -98.152855446412531, 20.146388599239714 ], [ -98.152932196412692, 20.146231349239702 ], [ -98.152963446412656, 20.146052099239338 ], [ -98.153168946412933, 20.145988599239224 ], [ -98.153563696413201, 20.146004849239436 ], [ -98.153784196413568, 20.145991599239146 ], [ -98.15395194641367, 20.145841849239208 ], [ -98.15400619641369, 20.145626849238997 ], [ -98.154036696413741, 20.145627099239 ], [ -98.154166696413753, 20.145462599239021 ], [ -98.154432946413991, 20.145356349238899 ], [ -98.15464619641422, 20.145278599238793 ], [ -98.154889696414472, 20.145186349238401 ], [ -98.155125446414644, 20.145101599238551 ], [ -98.155293196414831, 20.145009099238504 ], [ -98.155337446414876, 20.145217349238532 ], [ -98.15533694641492, 20.145339099238814 ], [ -98.155550196415149, 20.145218349238654 ], [ -98.155633696415236, 20.145240099238723 ], [ -98.155648446415213, 20.145319099238733 ], [ -98.155616696415152, 20.145555599238961 ], [ -98.155508446415041, 20.145913849239388 ], [ -98.155013446414571, 20.14618384923941 ], [ -98.154822946414427, 20.14629059923956 ], [ -98.154541446414171, 20.146360849239674 ], [ -98.154208196413876, 20.146215849239603 ], [ -98.15390444641352, 20.146221599239531 ], [ -98.153440696413114, 20.146291099239626 ], [ -98.153181696412901, 20.1464405992397 ], [ -98.153134946412905, 20.146662599239967 ], [ -98.152974446412657, 20.146841099240145 ], [ -98.152761696412483, 20.146876099239957 ], [ -98.152572196412379, 20.146796099240206 ], [ -98.152230946412061, 20.146715599239759 ], [ -98.151707196411493, 20.146677349239877 ], [ -98.1512661964111, 20.14675409924012 ], [ -98.151113946410931, 20.146839349240182 ], [ -98.15102869641089, 20.147125849240499 ], [ -98.150920946410821, 20.1474120992408 ], [ -98.150843946410632, 20.147619849240822 ], [ -98.150764446410548, 20.148286349241456 ], [ -98.150648446410472, 20.148637349241898 ], [ -98.150533446410421, 20.148866349242017 ], [ -98.150410696410304, 20.149102349242344 ], [ -98.150372196410373, 20.149195349242376 ], [ -98.150158196410189, 20.14943109924257 ], [ -98.149966946409847, 20.149666849242703 ], [ -98.149820946409761, 20.149988849243162 ], [ -98.149735946409592, 20.150275349243309 ], [ -98.149635446409633, 20.150583099243789 ], [ -98.149490446409402, 20.150740349243772 ], [ -98.149367946409328, 20.150919099243993 ], [ -98.149366446409388, 20.151170099244187 ], [ -98.149266946409256, 20.151305849244373 ], [ -98.149220196409303, 20.151527849244435 ], [ -98.149256946409196, 20.151764849244664 ], [ -98.149301446409396, 20.151972849244878 ], [ -98.149406946409414, 20.152138349245067 ], [ -98.149664446409602, 20.152268849245303 ], [ -98.149861696409758, 20.152305599245235 ], [ -98.150043446409882, 20.152399599245392 ], [ -98.150263196410208, 20.152501099245388 ], [ -98.150239946410125, 20.152587099245579 ], [ -98.150027196409951, 20.152607599245318 ], [ -98.149920196409951, 20.152693099245635 ], [ -98.14977569640979, 20.152735599245606 ], [ -98.149601196409606, 20.152706099245702 ], [ -98.149456696409445, 20.152748349245574 ], [ -98.149228696409253, 20.15279034924567 ], [ -98.149099446409053, 20.15281834924566 ], [ -98.148892946408935, 20.153089849245962 ], [ -98.148907196408857, 20.153247599245866 ], [ -98.148769696408806, 20.153404849246286 ], [ -98.148335196408439, 20.153696849246618 ], [ -98.147877696407903, 20.15402459924681 ], [ -98.147458446407583, 20.154316599247093 ], [ -98.147396946407554, 20.154430849247344 ], [ -98.147228696407325, 20.154638099247535 ], [ -98.147014946407239, 20.154880849247593 ], [ -98.146579946406803, 20.155244599247983 ], [ -98.146442196406625, 20.155416099248228 ], [ -98.146311696406599, 20.155702349248401 ], [ -98.146182196406372, 20.155773349248491 ], [ -98.14602219640615, 20.155873099248502 ], [ -98.145937196406152, 20.156145099248821 ], [ -98.145738946405942, 20.156280599249069 ], [ -98.145585946405788, 20.156487849249107 ], [ -98.145378946405643, 20.156831099249409 ], [ -98.145263696405607, 20.157088599249764 ], [ -98.145201696405508, 20.157310599249932 ], [ -98.145094446405324, 20.157489349249857 ], [ -98.145032196405239, 20.157725849250316 ], [ -98.145114196405359, 20.158020349250538 ], [ -98.145310446405574, 20.158272349250762 ], [ -98.145492196405726, 20.158373599250972 ], [ -98.145712446405966, 20.158374599250848 ], [ -98.14592544640611, 20.158275099250925 ], [ -98.146108196406345, 20.158218599250755 ], [ -98.146221696406428, 20.158276599250755 ], [ -98.146410446406563, 20.158507099250965 ], [ -98.14659119640676, 20.158751849251193 ], [ -98.146749446406915, 20.159003599251612 ], [ -98.146916196407062, 20.15904734925147 ], [ -98.146953696407124, 20.159162349251829 ], [ -98.147143196407214, 20.159227849251725 ], [ -98.147164946407273, 20.159414349251922 ], [ -98.14712519640716, 20.159729849252127 ], [ -98.146973196407131, 20.159743349252235 ], [ -98.146934696407016, 20.159843599252167 ], [ -98.146759946406888, 20.159857099252235 ], [ -98.146622946406836, 20.159921099252276 ], [ -98.146417446406673, 20.159977349252134 ], [ -98.146227446406328, 20.160012349252472 ], [ -98.146022446406178, 20.160032849252325 ], [ -98.145619696405774, 20.160052349252549 ], [ -98.145292696405605, 20.160122599252276 ], [ -98.145101946405305, 20.160265099252545 ], [ -98.144888446405275, 20.160457599252894 ], [ -98.144750696405055, 20.16063634925311 ], [ -98.144597696404873, 20.160843599253152 ], [ -98.144527696404836, 20.161130099253469 ], [ -98.144405196404833, 20.161308849253643 ], [ -98.14425944640459, 20.16157334925386 ], [ -98.144083446404395, 20.161816349254117 ], [ -98.143915446404293, 20.161987849254071 ], [ -98.143648696404014, 20.162172849254269 ], [ -98.143389446403788, 20.162350849254576 ], [ -98.143236696403619, 20.162472099254821 ], [ -98.143092196403472, 20.162543099254734 ], [ -98.142901196403329, 20.162735849254972 ], [ -98.142815696403204, 20.163086849255244 ], [ -98.142692696403117, 20.163366099255555 ], [ -98.142592446402958, 20.163638099255788 ], [ -98.14248469640296, 20.163902849256019 ], [ -98.142407946402898, 20.164045849256176 ], [ -98.142186946402646, 20.164166849256386 ], [ -98.142080196402574, 20.164259599256372 ], [ -98.142024946402572, 20.164617849256715 ], [ -98.141918196402415, 20.164739349256816 ], [ -98.141825446402294, 20.165004099257089 ], [ -98.141771446402217, 20.165168849257192 ], [ -98.141671696402213, 20.16534759925748 ], [ -98.14183119640235, 20.165334099257418 ], [ -98.142111446402595, 20.165471849257603 ], [ -98.142308946402778, 20.165472599257242 ], [ -98.142506196402977, 20.165516599257572 ], [ -98.142581196403114, 20.165689099257811 ], [ -98.142519696402928, 20.165818099257841 ], [ -98.142375196402796, 20.165896099257687 ], [ -98.142283196402758, 20.166039099258189 ], [ -98.14223669640262, 20.166203849258089 ], [ -98.142037946402567, 20.166453849258474 ], [ -98.141893196402364, 20.166524849258387 ], [ -98.141634446402236, 20.166602599258599 ], [ -98.141443696401993, 20.166759349258804 ], [ -98.141268446401781, 20.166851849258826 ], [ -98.141252696401722, 20.166980849258564 ], [ -98.141426696401936, 20.167103599258986 ], [ -98.141562696402133, 20.167240599258928 ], [ -98.141637946402142, 20.167362849259252 ], [ -98.14160669640215, 20.167513349259405 ], [ -98.141491946402056, 20.167663349259453 ], [ -98.141407446401985, 20.167842349259761 ], [ -98.141474946401971, 20.168000349259778 ], [ -98.141717696402253, 20.168066099260056 ], [ -98.14192269640246, 20.168059849260015 ], [ -98.142097696402587, 20.16799609925998 ], [ -98.142318196402726, 20.167961349259862 ], [ -98.142576696402998, 20.167934099259835 ], [ -98.142691446403092, 20.167791099259549 ], [ -98.142873946403341, 20.16774884925972 ], [ -98.143033946403506, 20.167620599259596 ], [ -98.143155696403582, 20.167614099259474 ], [ -98.143284946403682, 20.167564599259489 ], [ -98.143383696403873, 20.167593599259405 ], [ -98.143528196403992, 20.167529849259463 ], [ -98.143740946404122, 20.167509349259348 ], [ -98.143945696404217, 20.167596349259505 ], [ -98.14409744640443, 20.167604349259634 ], [ -98.144188696404441, 20.167583349259445 ], [ -98.144317946404584, 20.167591099259532 ], [ -98.144362446404671, 20.167763349259609 ], [ -98.14434669640471, 20.167892349259734 ], [ -98.14423194640456, 20.16800659925995 ], [ -98.144094196404382, 20.168206849260081 ], [ -98.144108446404459, 20.168378849260289 ], [ -98.144335946404695, 20.168437349260309 ], [ -98.144570696404799, 20.168582099260387 ], [ -98.144706696405066, 20.168704599260604 ], [ -98.144873696405199, 20.16871259926053 ], [ -98.145268696405424, 20.168714599260756 ], [ -98.145329196405584, 20.168757849260523 ], [ -98.145441946405697, 20.168973599260838 ], [ -98.145471446405708, 20.169145849260627 ], [ -98.145607446405776, 20.169282599261201 ], [ -98.145811946405985, 20.169412849260851 ], [ -98.146009196406126, 20.169420849261179 ], [ -98.146122696406323, 20.169507599261113 ], [ -98.146152446406347, 20.169658349261361 ], [ -98.146068196406375, 20.169743849261526 ], [ -98.145953946406181, 20.169815099261594 ], [ -98.145960696406149, 20.169965849261747 ], [ -98.146021446406223, 20.169980349261735 ], [ -98.146042696406198, 20.170281849261968 ], [ -98.146125696406244, 20.170353849262028 ], [ -98.146399446406591, 20.170333599262094 ], [ -98.146514196406656, 20.170140599261792 ], [ -98.146636446406774, 20.170033599261885 ], [ -98.146872446407059, 20.169905599261739 ], [ -98.147001696407116, 20.169884849261596 ], [ -98.147078946407134, 20.169648349261347 ], [ -98.147232696407357, 20.169347849261229 ], [ -98.14740069640753, 20.169176599261093 ], [ -98.147560196407724, 20.169177349260959 ], [ -98.14767344640768, 20.169271099260875 ], [ -98.147832696407917, 20.169350849261122 ], [ -98.147976946408065, 20.169351599261027 ], [ -98.14813694640813, 20.169259099261168 ], [ -98.148312696408269, 20.169073349260916 ], [ -98.148479696408501, 20.169081349260871 ], [ -98.148624446408704, 20.168996099260859 ], [ -98.148715446408602, 20.169025099260754 ], [ -98.148836946408906, 20.169033099260719 ], [ -98.148974196408957, 20.16895484926086 ], [ -98.149012696409073, 20.168840099260589 ], [ -98.149149196409198, 20.168862349260653 ], [ -98.149148196409215, 20.169056099260896 ], [ -98.149071696409067, 20.169170349260977 ], [ -98.148919196408869, 20.169291599260962 ], [ -98.148728696408739, 20.169398349261215 ], [ -98.148545696408519, 20.169497849261379 ], [ -98.148325196408422, 20.169582849261264 ], [ -98.148043446408209, 20.169688849261163 ], [ -98.147951946408114, 20.169767349261392 ], [ -98.147754196407831, 20.169816599261626 ], [ -98.147662446407693, 20.169895099261655 ], [ -98.147554946407666, 20.170109849261877 ], [ -98.147424696407498, 20.170331349261758 ], [ -98.147195446407281, 20.17059559926232 ], [ -98.146981696407209, 20.170773849262442 ], [ -98.146791446406894, 20.170873349262525 ], [ -98.14658544640676, 20.171030349262754 ], [ -98.146432946406549, 20.171129849262805 ], [ -98.146303196406421, 20.171244099262942 ], [ -98.146097446406316, 20.17139359926297 ], [ -98.146027946406193, 20.171572599263254 ], [ -98.145800196406014, 20.171550099263179 ], [ -98.145603196405887, 20.171484599263238 ], [ -98.145397946405637, 20.171512099263161 ], [ -98.145275946405548, 20.171597599263315 ], [ -98.144774696404966, 20.171559349263148 ], [ -98.14468394640501, 20.171508599263081 ], [ -98.144448446404795, 20.171500349263109 ], [ -98.143992946404282, 20.171483849263211 ], [ -98.143552196403931, 20.171488849263262 ], [ -98.14320294640369, 20.171494349263099 ], [ -98.142829696403339, 20.171686099263411 ], [ -98.142662696403164, 20.171635099263273 ], [ -98.142365696402834, 20.17181309926336 ], [ -98.142083446402452, 20.172033849263478 ], [ -98.141915946402449, 20.172104849263775 ], [ -98.141535696402016, 20.172181849263723 ], [ -98.141162446401751, 20.172373849263721 ], [ -98.140736196401235, 20.172543849264162 ], [ -98.140522946401092, 20.17265034926432 ], [ -98.140340196400885, 20.172735599264186 ], [ -98.140172946400824, 20.1727275992641 ], [ -98.140020946400583, 20.172777099264298 ], [ -98.139829446400398, 20.173041349264675 ], [ -98.139698946400372, 20.17328459926463 ], [ -98.139561196400109, 20.173484849264852 ], [ -98.139545446400149, 20.173606599265053 ], [ -98.139704446400458, 20.173686349265324 ], [ -98.139741446400365, 20.173872849265017 ], [ -98.139664696400317, 20.174016099265479 ], [ -98.139489696400091, 20.174072599265628 ], [ -98.139306696400084, 20.174179099265736 ], [ -98.139123946399735, 20.174285849265729 ], [ -98.13889544639953, 20.174406599265851 ], [ -98.138636196399332, 20.174577599265959 ], [ -98.138491196399244, 20.174713099266189 ], [ -98.138353696399108, 20.174812849266356 ], [ -98.138179196398838, 20.17481209926617 ], [ -98.137989446398649, 20.174753599266154 ], [ -98.137867696398544, 20.174803349266188 ], [ -98.137480196398329, 20.17483009926606 ], [ -98.137434446398231, 20.174865849266219 ], [ -98.137343196398064, 20.174865349266412 ], [ -98.137191696398006, 20.174807099266143 ], [ -98.137002696397815, 20.174662849266106 ], [ -98.136889446397689, 20.17454034926595 ], [ -98.136418446397343, 20.174523599265921 ], [ -98.136373196397187, 20.174458849265932 ], [ -98.136153696397059, 20.17432884926561 ], [ -98.135979196396832, 20.174277599265881 ], [ -98.135858446396696, 20.174148099265597 ], [ -98.13558594639656, 20.173953099265304 ], [ -98.135404696396336, 20.173801599265019 ], [ -98.135283696396158, 20.173671849265194 ], [ -98.135170696396017, 20.173499099265037 ], [ -98.134928696395932, 20.173325849264494 ], [ -98.134693946395629, 20.173181349264663 ], [ -98.134261196395187, 20.173179099264676 ], [ -98.134230446395279, 20.173243599264794 ], [ -98.13409344639507, 20.173257099264738 ], [ -98.134047696395143, 20.173328599264799 ], [ -98.133827196394833, 20.173363349264854 ], [ -98.1337051963947, 20.173434599265008 ], [ -98.133393696394378, 20.173440099264898 ], [ -98.133309696394377, 20.173533099265232 ], [ -98.133187196394331, 20.173711599265022 ], [ -98.133163446394292, 20.173883849265472 ], [ -98.133161946394353, 20.174141849265254 ], [ -98.133054446394141, 20.17434209926579 ], [ -98.132947446394098, 20.174499349265918 ], [ -98.13277194639393, 20.174627599265978 ], [ -98.132770446393934, 20.17491459926633 ], [ -98.132739196393914, 20.175043599266417 ], [ -98.13263994639378, 20.175143349266438 ], [ -98.132525946393628, 20.175157099266546 ], [ -98.132298196393478, 20.175127349266344 ], [ -98.13219219639339, 20.175069599266159 ], [ -98.131964946393069, 20.174975099266327 ], [ -98.131586446392873, 20.174736599266243 ], [ -98.131101696392321, 20.174454599265747 ], [ -98.131012472550282, 20.174408570242818 ], [ -98.130940808467344, 20.174066057418269 ], [ -98.130935034682693, 20.174043826248159 ], [ -98.130925287056812, 20.173901724902311 ] ] ] } },
{ "type": "Feature", "properties": { "Cobertura": "Laguna de Meztitlán" }, "geometry": { "type": "Polygon", "coordinates": [ [ [ -98.871738889826489, 20.702265523759262 ], [ -98.871374381841562, 20.70198505107345 ], [ -98.870711625050063, 20.701984541041291 ], [ -98.869991354631821, 20.702092547851965 ], [ -98.869098603337321, 20.701865808554412 ], [ -98.868974095486294, 20.701359841649559 ], [ -98.868677091758101, 20.700681888899801 ], [ -98.868072568638425, 20.700121168542392 ], [ -98.868074323749255, 20.698088045339219 ], [ -98.867959566512837, 20.697410332604683 ], [ -98.867422052618707, 20.697292335164011 ], [ -98.86711429321231, 20.697635571807616 ], [ -98.866634037928776, 20.697915294446041 ], [ -98.865741016617335, 20.697688825165599 ], [ -98.865377003663639, 20.696784883165467 ], [ -98.86532025508528, 20.695881181180432 ], [ -98.865022981340104, 20.695203213429668 ], [ -98.865023731387382, 20.694408268302727 ], [ -98.865504736718194, 20.693622308742395 ], [ -98.865861489213984, 20.691815414804541 ], [ -98.866467737442349, 20.690406495962247 ], [ -98.866766721295392, 20.688933838100358 ], [ -98.867189972984463, 20.687922129304916 ], [ -98.868025990701454, 20.687299170022925 ], [ -98.868506245984975, 20.686956203396559 ], [ -98.868689002509029, 20.68656770889886 ], [ -98.868209497272886, 20.685998242989882 ], [ -98.867671983378585, 20.685717770304148 ], [ -98.866827460125421, 20.685147794363232 ], [ -98.866165693396212, 20.684415358177777 ], [ -98.865753197385459, 20.683791633847424 ], [ -98.865811176041461, 20.683403169352051 ], [ -98.865926683324972, 20.683059692693099 ], [ -98.86562943958171, 20.682661957613224 ], [ -98.865207177954957, 20.682553215756311 ], [ -98.864726922671508, 20.682661207565907 ], [ -98.864313661612243, 20.683112691035245 ], [ -98.863833406328681, 20.683229938428571 ], [ -98.86346838831173, 20.68328368681772 ], [ -98.86322864319402, 20.683175184975941 ], [ -98.862806141552298, 20.683003199130866 ], [ -98.862325871267728, 20.683282936770432 ], [ -98.861970378851453, 20.683562659408949 ], [ -98.861672370059978, 20.683960139472884 ], [ -98.86154663213118, 20.685089335676746 ], [ -98.861362885544594, 20.686336259304465 ], [ -98.861064366720939, 20.687293694677596 ], [ -98.860583376391048, 20.688251145051886 ], [ -98.860582641344692, 20.689209090457133 ], [ -98.860283897506619, 20.690455774069509 ], [ -98.859887902536272, 20.692741378193301 ], [ -98.858840146467784, 20.693951309488309 ], [ -98.857581117076919, 20.695079755644816 ], [ -98.856313342134641, 20.695476485661601 ], [ -98.855420575839105, 20.695078015535184 ], [ -98.85451831394515, 20.694851531253725 ], [ -98.854997084134936, 20.696152953317696 ], [ -98.85529434287929, 20.696776662646993 ], [ -98.856254118400045, 20.697057645365113 ], [ -98.85613811608529, 20.698078579742443 ], [ -98.855590116529967, 20.698755797445838 ], [ -98.855656375708136, 20.69971374285117 ], [ -98.855291102674968, 20.700110967898912 ], [ -98.855347371223132, 20.701466393368467 ], [ -98.854271848403542, 20.701519646726467 ], [ -98.853668090332434, 20.700163726225732 ], [ -98.852833572709997, 20.699259529209662 ], [ -98.851989049456748, 20.698807070678903 ], [ -98.851336778326285, 20.697957117083259 ], [ -98.850376522775335, 20.697847880195102 ], [ -98.849895277429454, 20.699085308223736 ], [ -98.849347757904212, 20.699139041612174 ], [ -98.848695486773806, 20.698524092835136 ], [ -98.848033735045647, 20.697619895819003 ], [ -98.847669707090958, 20.696824440659899 ], [ -98.848035460154406, 20.695975252112259 ], [ -98.847670712154382, 20.695749007845944 ], [ -98.847314964722045, 20.696317978723787 ], [ -98.846536700646809, 20.696651704767561 ], [ -98.84605692539364, 20.696316973660426 ], [ -98.845211922109954, 20.696261995193442 ], [ -98.845095934796134, 20.697047939753006 ], [ -98.845027680492294, 20.697951386721986 ], [ -98.844307425074916, 20.698230884346135 ], [ -98.843414898794819, 20.697615665552195 ], [ -98.843108384466873, 20.696765966972819 ], [ -98.842570885573622, 20.696648224548056 ], [ -98.841189358458479, 20.695463044814034 ], [ -98.840114090654978, 20.695182077097023 ], [ -98.839692324059598, 20.694503869331001 ], [ -98.838973058704696, 20.693599672314896 ], [ -98.838916295125344, 20.692750213750553 ], [ -98.83819702977047, 20.692017762564113 ], [ -98.838073766997937, 20.690318860436204 ], [ -98.837353766596664, 20.690209878563962 ], [ -98.837178270530401, 20.692802972077203 ], [ -98.835854002025656, 20.691961269001727 ], [ -98.83525972455223, 20.690993842998605 ], [ -98.835260969630738, 20.689755904937758 ], [ -98.83561746711058, 20.688735225576487 ], [ -98.836520974083186, 20.687724011812183 ], [ -98.839278762981607, 20.6858653646111 ], [ -98.839462014536878, 20.685241910297819 ], [ -98.840605281628228, 20.684565457642705 ], [ -98.840846031809306, 20.683887969921951 ], [ -98.842585796513902, 20.682190822904793 ], [ -98.845765592022957, 20.680558164953919 ], [ -98.848646373677013, 20.680280677456352 ], [ -98.851526930316794, 20.680228909192046 ], [ -98.852793460180578, 20.68090761198911 ], [ -98.853937462318129, 20.679661678423876 ], [ -98.855792494291265, 20.677630040314632 ], [ -98.855313214069199, 20.676671854893964 ], [ -98.854112958384547, 20.676725108252235 ], [ -98.853931446938958, 20.675767147845828 ], [ -98.854776705238464, 20.675316189409553 ], [ -98.855554969313758, 20.674810717535966 ], [ -98.855795719494722, 20.674187488236871 ], [ -98.856093968301408, 20.67345578709778 ], [ -98.856938731569812, 20.673619027391187 ], [ -98.857475495416708, 20.674523224407523 ], [ -98.858675766102408, 20.674415712628072 ], [ -98.859279779189734, 20.675265666223837 ], [ -98.862160560843819, 20.674816177880349 ], [ -98.862938839919863, 20.674247477019804 ], [ -98.86467686451482, 20.674022972863042 ], [ -98.865522377830672, 20.673463257568905 ], [ -98.865455863636441, 20.67266804242486 ], [ -98.86497659841524, 20.671709857004281 ], [ -98.865879370341545, 20.671430614396272 ], [ -98.866484868522491, 20.670753411693585 ], [ -98.866965618837256, 20.669958451565694 ], [ -98.866544107257994, 20.668828775331342 ], [ -98.865824586887101, 20.668150567565675 ], [ -98.866362595812447, 20.66759059725538 ], [ -98.866603601009487, 20.666741393706957 ], [ -98.865701324114539, 20.666343163595684 ], [ -98.865049308000124, 20.665439236596388 ], [ -98.86546282407528, 20.664707520456695 ], [ -98.865530568347069, 20.663975564301506 ], [ -98.864925805212351, 20.663803578456506 ], [ -98.864206044826361, 20.663577094175022 ], [ -98.864331782755031, 20.662619403785818 ], [ -98.86481179802341, 20.662556399812956 ], [ -98.865704564318705, 20.66262039384825 ], [ -98.866491573945382, 20.662955379971635 ], [ -98.867509103107921, 20.663127845846684 ], [ -98.868411365002075, 20.663408588549622 ], [ -98.869370390475538, 20.664538759814988 ], [ -98.869369385412, 20.665559949208262 ], [ -98.869849145664489, 20.666120414549638 ], [ -98.870204908097946, 20.665442956831065 ], [ -98.870627409739711, 20.665271721033481 ], [ -98.871048921318973, 20.666347393862541 ], [ -98.87116367855522, 20.666853375768291 ], [ -98.871460682283441, 20.667531343518998 ], [ -98.872065205402933, 20.66804680602263 ], [ -98.873025220938857, 20.6682732753031 ], [ -98.873687482699268, 20.668499774585595 ], [ -98.873802989982778, 20.668048036100206 ], [ -98.874705506892965, 20.667931298739138 ], [ -98.875483005919989, 20.668103539600093 ], [ -98.875367258621267, 20.668889484159507 ], [ -98.874944246947294, 20.669630200866997 ], [ -98.874646508172731, 20.669738432691734 ], [ -98.873926252755453, 20.669855440069949 ], [ -98.873138973111793, 20.669908933443271 ], [ -98.872658462812069, 20.670360401911591 ], [ -98.873377983183062, 20.671147111519264 ], [ -98.873502251019133, 20.671888068241845 ], [ -98.874097263538872, 20.672168555928607 ], [ -98.874338253735147, 20.671093618145868 ], [ -98.875125518377857, 20.671039854755932 ], [ -98.875297279208567, 20.672278032831933 ], [ -98.875844288701416, 20.672621764506705 ], [ -98.875901292295907, 20.67324521882016 ], [ -98.876621307698002, 20.673354215692907 ], [ -98.876803314174879, 20.673860422613032 ], [ -98.877340828069023, 20.674149925868193 ], [ -98.878002834813287, 20.674710631224784 ], [ -98.878002099766931, 20.675668321614012 ], [ -98.877339327974397, 20.676011303241534 ], [ -98.876436811064238, 20.675956324774805 ], [ -98.875775059336036, 20.675106611194163 ], [ -98.874815043800126, 20.674988373738469 ], [ -98.874880552930961, 20.677193257772238 ], [ -98.875235055284861, 20.677816952100741 ], [ -98.875052058745609, 20.678548668240687 ], [ -98.875118812955009, 20.679226380975305 ], [ -98.875598828223318, 20.679398366820301 ], [ -98.876194335774528, 20.679118869196007 ], [ -98.876434830939331, 20.67832366905288 ], [ -98.876972599849537, 20.678269920663674 ], [ -98.87703960907497, 20.678775887568502 ], [ -98.877519354326338, 20.679002131834803 ], [ -98.878056868220455, 20.679346103524779 ], [ -98.878776628606516, 20.679735078052396 ], [ -98.87943914538296, 20.679798817071571 ], [ -98.88033215169348, 20.679681839695359 ], [ -98.881051912079698, 20.680025796384218 ], [ -98.881417410126801, 20.679348338665722 ], [ -98.882012677662814, 20.679348833696903 ], [ -98.882732198033679, 20.679963557459661 ], [ -98.883336946167461, 20.680135783319727 ], [ -98.884297471735508, 20.679802057275918 ], [ -98.884959733495947, 20.680136773382156 ], [ -98.885016992106443, 20.680642995303018 ], [ -98.884411478924633, 20.681320228007657 ], [ -98.88363346986533, 20.681771441459905 ], [ -98.882797707164542, 20.682285913901016 ], [ -98.8827969721183, 20.683352106132091 ], [ -98.883209723145043, 20.683469833555556 ], [ -98.883689978428663, 20.683244354337543 ], [ -98.884410248846834, 20.682964616698087 ], [ -98.884592240322775, 20.683696827869248 ], [ -98.883996747772812, 20.684030553913288 ], [ -98.883928748484806, 20.684771510635755 ], [ -98.884533511619452, 20.684997739900993 ], [ -98.884293241468811, 20.685331990978213 ], [ -98.883390484543469, 20.685503226775605 ], [ -98.882910229259906, 20.685728705993842 ], [ -98.882372235335524, 20.68623443288357 ], [ -98.882428488882667, 20.687987338416736 ], [ -98.883206002910555, 20.688385298510987 ], [ -98.884165523415263, 20.68922649155418 ], [ -98.885192293160443, 20.690130688570594 ], [ -98.8860845794255, 20.691152372995049 ], [ -98.886804579826759, 20.691487104102464 ], [ -98.887524580228003, 20.691487599133467 ], [ -98.887590839406187, 20.692788766181518 ], [ -98.88800360543388, 20.69296076702728 ], [ -98.888665867194348, 20.693521472383885 ], [ -98.888905387297825, 20.69426244410748 ], [ -98.888664637116861, 20.695165891076297 ], [ -98.888068874549717, 20.69572584638545 ], [ -98.887464111415014, 20.695327886291235 ], [ -98.886802104670778, 20.694875652774851 ], [ -98.886389578657997, 20.694089198183043 ], [ -98.885785085540377, 20.693636979667446 ], [ -98.885842089134812, 20.694423179242904 ], [ -98.885601578968917, 20.694874917728342 ], [ -98.884948557791162, 20.695046153525979 ], [ -98.884343314626321, 20.695388880137269 ], [ -98.884160303086119, 20.696003348884133 ], [ -98.884765066220751, 20.696401323979284 ], [ -98.884639823323283, 20.697024778292583 ], [ -98.884044060756167, 20.697358519337435 ], [ -98.883266066698098, 20.697647257544329 ], [ -98.882478787054339, 20.697420773262877 ], [ -98.881826290909757, 20.696968554747244 ], [ -98.881279521432077, 20.696118856167711 ], [ -98.880742262554008, 20.695440648401895 ], [ -98.87978199200208, 20.695548655212225 ], [ -98.878580986270009, 20.696514581120908 ], [ -98.878282962477485, 20.696966064590217 ], [ -98.878157719580003, 20.697417788074599 ], [ -98.87756221202882, 20.697417293043348 ], [ -98.877081956745286, 20.697525539869105 ], [ -98.875169681162546, 20.699322188160707 ], [ -98.874439180099316, 20.700008406431781 ], [ -98.872632646184314, 20.701480074231167 ], [ -98.872152135884562, 20.701985546104741 ], [ -98.871738889826489, 20.702265523759262 ] ] ] } }
]
}
