{
"type": "FeatureCollection",
"name": "suelos_contaminados",
"crs": { "type": "name", "properties": { "name": "urn:ogc:def:crs:OGC:1.3:CRS84" } },
"features": [
{ "type": "Feature", "properties": { "Contaminante": "Metales relacionados de pesticidas,  plaguicidas y fertilizantes", "Concentracion": 70.73, "Municipio": "Emiliano Zapata" }, "geometry": { "type": "Point", "coordinates": [ -98.600273246224006, 19.659287891936678 ] } },
{ "type": "Feature", "properties": { "Contaminante": "Metales relacionados de pesticidas,  plaguicidas y fertilizantes", "Concentracion": 57.85, "Municipio": "Tizayuca" }, "geometry": { "type": "Point", "coordinates": [ -98.961185191830722, 19.852522053065119 ] } },
{ "type": "Feature", "properties": { "Contaminante": "Metales relacionados de pesticidas,  plaguicidas y fertilizantes", "Concentracion": 75.85, "Municipio": "Progreso de Obregón" }, "geometry": { "type": "Point", "coordinates": [ -99.182828587567784, 20.327394187424694 ] } },
{ "type": "Feature", "properties": { "Contaminante": "Metales pesados por minería", "Concentracion": 59.0, "Municipio": "Pachuca de Soto" }, "geometry": { "type": "Point", "coordinates": [ -98.961185191830722, 19.852522053065119 ] } },
{ "type": "Feature", "properties": { "Contaminante": "Metales pesados por minería", "Concentracion": 400.0, "Municipio": "Zimapán" }, "geometry": { "type": "Point", "coordinates": [ -99.365755954068192, 20.752847031393401 ] } },
{ "type": "Feature", "properties": { "Contaminante": "Metales pesados por minería", "Concentracion": 0.014, "Municipio": "Mineral de la Reforma" }, "geometry": { "type": "Point", "coordinates": [ -98.712997458625807, 20.105555681772714 ] } },
{ "type": "Feature", "properties": { "Contaminante": "Metales pesados por minería", "Concentracion": 67.0, "Municipio": "Molango de Escamilla" }, "geometry": { "type": "Point", "coordinates": [ -98.776385153197012, 20.864366562461157 ] } },
{ "type": "Feature", "properties": { "Contaminante": "Metales pesados por riego", "Concentracion": 177.0, "Municipio": "Tula de Allende" }, "geometry": { "type": "Point", "coordinates": [ -99.376718878275156, 20.064126503136947 ] } },
{ "type": "Feature", "properties": { "Contaminante": "Metales pesados por riego", "Concentracion": 177.0, "Municipio": "Tlaxcoapan" }, "geometry": { "type": "Point", "coordinates": [ -99.230969925979821, 20.096203790576759 ] } },
{ "type": "Feature", "properties": { "Contaminante": "Metales pesados por riego", "Concentracion": 177.0, "Municipio": "Tlahuelilpan" }, "geometry": { "type": "Point", "coordinates": [ -99.219071790672416, 20.131551756946632 ] } },
{ "type": "Feature", "properties": { "Contaminante": "Metales pesados por riego", "Concentracion": 737.0, "Municipio": "Ajacuba" }, "geometry": { "type": "Point", "coordinates": [ -99.07803809095023, 20.119814666803077 ] } },
{ "type": "Feature", "properties": { "Contaminante": "Metales pesados por riego", "Concentracion": 1014.0, "Municipio": "Tezontepec de Aldama" }, "geometry": { "type": "Point", "coordinates": [ -99.293280741455135, 20.178867131083948 ] } },
{ "type": "Feature", "properties": { "Contaminante": "Metales pesados por riego", "Concentracion": 1118.0, "Municipio": "Progreso de Obregón" }, "geometry": { "type": "Point", "coordinates": [ -99.178157901628524, 20.314323445096132 ] } },
{ "type": "Feature", "properties": { "Contaminante": "Metales pesados por riego", "Concentracion": 2284.0, "Municipio": "Fco. I. Madero" }, "geometry": { "type": "Point", "coordinates": [ -99.080288022284208, 20.235282054402042 ] } },
{ "type": "Feature", "properties": { "Contaminante": "Metales pesados por riego", "Concentracion": 1249.0, "Municipio": "Actopan" }, "geometry": { "type": "Point", "coordinates": [ -98.889708349993185, 20.314533012146683 ] } },
{ "type": "Feature", "properties": { "Contaminante": "Metales pesados por riego", "Concentracion": 1772.0, "Municipio": "Mixquiahuala" }, "geometry": { "type": "Point", "coordinates": [ -99.180735180414374, 20.223848581532266 ] } },
{ "type": "Feature", "properties": { "Contaminante": "Hidrocarburos", "Concentracion": 2.65, "Municipio": "Acaxochitlán" }, "geometry": { "type": "Point", "coordinates": [ -98.198406529918188, 20.159846117901843 ] } },
{ "type": "Feature", "properties": { "Contaminante": "Hidrocarburos", "Concentracion": 10.73, "Municipio": "Tepeapulco" }, "geometry": { "type": "Point", "coordinates": [ -98.395697957101746, 19.874518097456651 ] } },
{ "type": "Feature", "properties": { "Contaminante": "Hidrocarburos", "Concentracion": 10.73, "Municipio": "Cuautepec de Hinojosa" }, "geometry": { "type": "Point", "coordinates": [ -98.350135326352898, 19.891093045112569 ] } }
]
}
