{
"type": "FeatureCollection",
"name": "plagas",
"crs": { "type": "name", "properties": { "name": "urn:ogc:def:crs:OGC:1.3:CRS84" } },
"features": [
{ "type": "Feature", "properties": { "Plaga": "Andricus  quercuslaurinus", "Hospedero": "Quercus affinis", "eventDate": null, "url": null, "url_image": null, "sitio": null, "nombre_cientifico": null, "nombre_comun": null }, "geometry": { "type": "Point", "coordinates": [ -98.198402891122655, 20.159837342434919 ] } },
{ "type": "Feature", "properties": { "Plaga": "Psittacanthus spp", "Hospedero": "Liquidambar macrophylla", "eventDate": null, "url": null, "url_image": null, "sitio": null, "nombre_cientifico": null, "nombre_comun": null }, "geometry": { "type": "Point", "coordinates": [ -98.527573193154339, 21.148476748012769 ] } },
{ "type": "Feature", "properties": { "Plaga": "Dendroctonus mexicanus", "Hospedero": "Pinus patula, Quercus", "eventDate": null, "url": null, "url_image": null, "sitio": null, "nombre_cientifico": null, "nombre_comun": null }, "geometry": { "type": "Point", "coordinates": [ -98.605300446447274, 20.523777981177837 ] } },
{ "type": "Feature", "properties": { "Plaga": "Dendroctonus mexicanus", "Hospedero": "Pinus cembroides", "eventDate": null, "url": null, "url_image": null, "sitio": null, "nombre_cientifico": null, "nombre_comun": null }, "geometry": { "type": "Point", "coordinates": [ -98.809653964236531, 20.565406062472604 ] } },
{ "type": "Feature", "properties": { "Plaga": "Psittacanthus spp", "Hospedero": "Liquidambar macrophylla", "eventDate": null, "url": null, "url_image": null, "sitio": null, "nombre_cientifico": null, "nombre_comun": null }, "geometry": { "type": "Point", "coordinates": [ -98.832950766958859, 21.061415314724123 ] } },
{ "type": "Feature", "properties": { "Plaga": "Phoradendron spp", "Hospedero": null, "eventDate": null, "url": null, "url_image": null, "sitio": null, "nombre_cientifico": null, "nombre_comun": null }, "geometry": { "type": "Point", "coordinates": [ -98.544218060528152, 20.778777707884618 ] } },
{ "type": "Feature", "properties": { "Plaga": "Phoradendron spp", "Hospedero": null, "eventDate": null, "url": null, "url_image": null, "sitio": null, "nombre_cientifico": null, "nombre_comun": null }, "geometry": { "type": "Point", "coordinates": [ -98.639602810273985, 20.794897010612125 ] } },
{ "type": "Feature", "properties": { "Plaga": "Dendroctonus mexicanus", "Hospedero": "Pinus patula", "eventDate": null, "url": null, "url_image": null, "sitio": null, "nombre_cientifico": null, "nombre_comun": null }, "geometry": { "type": "Point", "coordinates": [ -98.586742769030025, 20.650751071170479 ] } },
{ "type": "Feature", "properties": { "Plaga": "Xylococculus sp", "Hospedero": null, "eventDate": null, "url": null, "url_image": null, "sitio": null, "nombre_cientifico": null, "nombre_comun": null }, "geometry": { "type": "Point", "coordinates": [ -98.88257394972608, 20.217140594434081 ] } },
{ "type": "Feature", "properties": { "Plaga": "Dendroctonus mexicanus", "Hospedero": null, "eventDate": null, "url": null, "url_image": null, "sitio": null, "nombre_cientifico": null, "nombre_comun": null }, "geometry": { "type": "Point", "coordinates": [ -99.060182337582191, 20.599115347767604 ] } },
{ "type": "Feature", "properties": { "Plaga": "Tillandsia recurvata", "Hospedero": null, "eventDate": null, "url": null, "url_image": null, "sitio": null, "nombre_cientifico": null, "nombre_comun": null }, "geometry": { "type": "Point", "coordinates": [ -99.672670693219132, 20.232993460587902 ] } },
{ "type": "Feature", "properties": { "Plaga": "Dendroctonus mexicanus", "Hospedero": null, "eventDate": null, "url": null, "url_image": null, "sitio": null, "nombre_cientifico": null, "nombre_comun": null }, "geometry": { "type": "Point", "coordinates": [ -98.982864406168687, 20.412362887928914 ] } },
{ "type": "Feature", "properties": { "Plaga": "Phoradendron spp", "Hospedero": null, "eventDate": null, "url": null, "url_image": null, "sitio": null, "nombre_cientifico": null, "nombre_comun": null }, "geometry": { "type": "Point", "coordinates": [ -98.648166863424819, 21.031813461476112 ] } },
{ "type": "Feature", "properties": { "Plaga": "Tilandsia bromelia", "Hospedero": null, "eventDate": "2014-05-02", "url": "http://www.inaturalist.org/observations/685737", "url_image": "https://static.inaturalist.org/photos/862929/medium.jpg?1444530597", "sitio": "Tlanchinol", "nombre_cientifico": "Tillandsia", "nombre_comun": "Heno, gallitos y claveles de aire" }, "geometry": { "type": "Point", "coordinates": [ -98.659291, 20.988781 ] } },
{ "type": "Feature", "properties": { "Plaga": "Tilandsia bromelia", "Hospedero": null, "eventDate": "2014-09-07", "url": "http://conabio.inaturalist.org/observations/896823", "url_image": "https://static.inaturalist.org/photos/1141112/medium.JPG?1411793740", "sitio": "Parque Nacional El Chico", "nombre_cientifico": "Tillandsia", "nombre_comun": "Heno, gallitos y claveles de aire" }, "geometry": { "type": "Point", "coordinates": [ -98.72, 20.188 ] } },
{ "type": "Feature", "properties": { "Plaga": "Tilandsia bromelia", "Hospedero": null, "eventDate": "2014-10-25", "url": "http://conabio.inaturalist.org/observations/1048810", "url_image": "https://static.inaturalist.org/photos/1315930/medium.jpg?1414794030", "sitio": "cerro el corazòn , Atotonilco de Tula hidalgo mexico", "nombre_cientifico": "Tillandsia usneoides", "nombre_comun": "Heno" }, "geometry": { "type": "Point", "coordinates": [ -99.220369, 20.009689 ] } },
{ "type": "Feature", "properties": { "Plaga": "Tilandsia bromelia", "Hospedero": null, "eventDate": "2015-01-25", "url": "http://conabio.inaturalist.org/observations/1194734", "url_image": "https://static.inaturalist.org/photos/1509098/medium.JPG?1422244040", "sitio": "Tula, Hidalgo.", "nombre_cientifico": "Tillandsia recurvata", "nombre_comun": "Gallinitas" }, "geometry": { "type": "Point", "coordinates": [ -99.33764, 20.063223 ] } },
{ "type": "Feature", "properties": { "Plaga": "Tilandsia bromelia", "Hospedero": null, "eventDate": "2015-02-22", "url": "http://conabio.inaturalist.org/observations/1285236", "url_image": "https://static.inaturalist.org/photos/1611756/medium.jpg?1426011539", "sitio": null, "nombre_cientifico": "Tillandsia erubescens", "nombre_comun": null }, "geometry": { "type": "Point", "coordinates": [ -98.627508, 20.067138 ] } },
{ "type": "Feature", "properties": { "Plaga": "Tilandsia bromelia", "Hospedero": null, "eventDate": "2015-02-21", "url": "http://conabio.inaturalist.org/observations/1287962", "url_image": "https://static.inaturalist.org/photos/1615404/medium.JPG?1426143729", "sitio": "Parque Nacional El Chico", "nombre_cientifico": "Tillandsia erubescens", "nombre_comun": null }, "geometry": { "type": "Point", "coordinates": [ -98.72, 20.188 ] } },
{ "type": "Feature", "properties": { "Plaga": "Tilandsia bromelia", "Hospedero": null, "eventDate": "2015-03-07", "url": "http://conabio.inaturalist.org/observations/1310403", "url_image": "https://static.inaturalist.org/photos/1644853/medium.jpg?1426997557", "sitio": "San Antonio Tezoquipan", "nombre_cientifico": "Tillandsia recurvata", "nombre_comun": "Gallinitas" }, "geometry": { "type": "Point", "coordinates": [ -99.438296, 20.451143 ] } },
{ "type": "Feature", "properties": { "Plaga": "Tilandsia bromelia", "Hospedero": null, "eventDate": "2015-03-07", "url": "http://conabio.inaturalist.org/observations/1344592", "url_image": "https://static.inaturalist.org/photos/1663418/medium.jpg?1427513345", "sitio": "San Antonio Tezoquipan", "nombre_cientifico": "Tillandsia", "nombre_comun": "Heno, gallitos y claveles de aire" }, "geometry": { "type": "Point", "coordinates": [ -99.46559, 20.472051 ] } },
{ "type": "Feature", "properties": { "Plaga": "Tilandsia bromelia", "Hospedero": null, "eventDate": "2015-08-29", "url": "http://conabio.inaturalist.org/observations/1922244", "url_image": "https://static.inaturalist.org/photos/2349695/medium.JPG?1441560821", "sitio": "Parque Nacional El Chico", "nombre_cientifico": "Tillandsia violacea", "nombre_comun": "Magueyito" }, "geometry": { "type": "Point", "coordinates": [ -98.71709, 20.183784 ] } },
{ "type": "Feature", "properties": { "Plaga": "Tilandsia bromelia", "Hospedero": null, "eventDate": "2015-12-20", "url": "http://conabio.inaturalist.org/observations/2498928", "url_image": "https://static.inaturalist.org/photos/2806385/medium.png?1450893731", "sitio": "Huasca de Ocampo, MX-HI, MX", "nombre_cientifico": "Tillandsia recurvata", "nombre_comun": "Gallinitas" }, "geometry": { "type": "Point", "coordinates": [ -98.563481, 20.236659 ] } },
{ "type": "Feature", "properties": { "Plaga": "Tilandsia bromelia", "Hospedero": null, "eventDate": "2016-02-07", "url": "http://conabio.inaturalist.org/observations/3193173", "url_image": "https://static.inaturalist.org/photos/3696199/medium.JPG?1463456471", "sitio": "Huasca de Ocampo, MX-HI, MX", "nombre_cientifico": "Tillandsia parryi", "nombre_comun": null }, "geometry": { "type": "Point", "coordinates": [ -98.562488, 20.234055 ] } },
{ "type": "Feature", "properties": { "Plaga": "Tilandsia bromelia", "Hospedero": null, "eventDate": "2016-01-10", "url": "http://conabio.inaturalist.org/observations/3235483", "url_image": "https://static.inaturalist.org/photos/3744578/medium.JPG?1463784360", "sitio": "San Pablo Tetlapayac", "nombre_cientifico": "Tillandsia ionantha", "nombre_comun": "Gallito" }, "geometry": { "type": "Point", "coordinates": [ -98.920833, 20.64 ] } },
{ "type": "Feature", "properties": { "Plaga": "Tilandsia bromelia", "Hospedero": null, "eventDate": "2016-03-02", "url": "http://conabio.inaturalist.org/observations/3371567", "url_image": "https://static.inaturalist.org/photos/3892763/medium.JPG?1464976150", "sitio": "Hidalgo, MX", "nombre_cientifico": "Tillandsia mauryana", "nombre_comun": null }, "geometry": { "type": "Point", "coordinates": [ -98.922281631499999, 20.751303669099979 ] } },
{ "type": "Feature", "properties": { "Plaga": "Tilandsia bromelia", "Hospedero": null, "eventDate": "2016-06-04", "url": "http://www.inaturalist.org/observations/3459214", "url_image": "https://static.inaturalist.org/photos/4015432/medium.jpg?1465957926", "sitio": "El Chico, Mineral del Chico, Hidalgo, Mexico", "nombre_cientifico": "Tillandsia violacea", "nombre_comun": "Magueyito" }, "geometry": { "type": "Point", "coordinates": [ -98.709625, 20.188830555599981 ] } },
{ "type": "Feature", "properties": { "Plaga": "Tilandsia bromelia", "Hospedero": null, "eventDate": "2016-06-18", "url": "http://conabio.inaturalist.org/observations/3482924", "url_image": "https://static.inaturalist.org/photos/4050657/medium.JPG?1466358219", "sitio": "Ajacuba, Hidalgo", "nombre_cientifico": "Tillandsia usneoides", "nombre_comun": "Heno" }, "geometry": { "type": "Point", "coordinates": [ -99.128351, 20.058995 ] } },
{ "type": "Feature", "properties": { "Plaga": "Tilandsia bromelia", "Hospedero": null, "eventDate": "2016-06-18", "url": "http://conabio.inaturalist.org/observations/3482979", "url_image": "https://static.inaturalist.org/photos/4050727/medium.JPG?1466359019", "sitio": "Ajacuba, Hidalgo", "nombre_cientifico": "Tillandsia erubescens", "nombre_comun": null }, "geometry": { "type": "Point", "coordinates": [ -99.128351, 20.052222 ] } },
{ "type": "Feature", "properties": { "Plaga": "Tilandsia bromelia", "Hospedero": null, "eventDate": "2007-03-31", "url": "http://conabio.inaturalist.org/observations/3802661", "url_image": "https://static.inaturalist.org/photos/4442266/medium.jpg?1470329759", "sitio": "Reserva de la barranca de meztitlan", "nombre_cientifico": "Tillandsia recurvata", "nombre_comun": "Gallinitas" }, "geometry": { "type": "Point", "coordinates": [ -98.7650189, 20.6095162 ] } },
{ "type": "Feature", "properties": { "Plaga": "Tilandsia bromelia", "Hospedero": null, "eventDate": "2016-09-02", "url": "http://conabio.inaturalist.org/observations/4027839", "url_image": "https://static.inaturalist.org/photos/4761235/medium.jpeg?1472943283", "sitio": "Parque Ecológico Cubitos, Privada la Paz, Pachuca de Soto, México", "nombre_cientifico": "Tillandsia recurvata", "nombre_comun": "Gallinitas" }, "geometry": { "type": "Point", "coordinates": [ -98.7357274, 20.100746799999978 ] } },
{ "type": "Feature", "properties": { "Plaga": "Tilandsia bromelia", "Hospedero": null, "eventDate": "2016-10-16", "url": "http://conabio.inaturalist.org/observations/4379571", "url_image": "https://static.inaturalist.org/photos/5253797/medium.jpeg?1476738978", "sitio": "Mineral del Chico, Hgo., México", "nombre_cientifico": "Tillandsia", "nombre_comun": "Heno, gallitos y claveles de aire" }, "geometry": { "type": "Point", "coordinates": [ -98.730010986300002, 20.202923627500013 ] } },
{ "type": "Feature", "properties": { "Plaga": "Tilandsia bromelia", "Hospedero": null, "eventDate": "2016-03-24", "url": "http://conabio.inaturalist.org/observations/4420741", "url_image": "https://static.inaturalist.org/photos/5315645/medium.jpeg?1477242860", "sitio": "Museo de los Duendes, Huasca de Ocampo, México", "nombre_cientifico": "Tillandsia usneoides", "nombre_comun": "Heno" }, "geometry": { "type": "Point", "coordinates": [ -98.5467517, 20.2076251 ] } },
{ "type": "Feature", "properties": { "Plaga": "Tilandsia bromelia", "Hospedero": null, "eventDate": "2013-01-18", "url": "http://conabio.inaturalist.org/observations/4522810", "url_image": "https://static.inaturalist.org/photos/5476117/medium.jpeg?1478719674", "sitio": "Ajacuba, Hgo., México", "nombre_cientifico": "Tillandsia usneoides", "nombre_comun": "Heno" }, "geometry": { "type": "Point", "coordinates": [ -99.139766693100015, 20.053996234800017 ] } },
{ "type": "Feature", "properties": { "Plaga": "Tilandsia bromelia", "Hospedero": null, "eventDate": "2016-12-26", "url": "http://conabio.inaturalist.org/observations/4858704", "url_image": "https://static.inaturalist.org/photos/5899468/medium.jpg?1482959590", "sitio": "Huasca de Ocampo, Hgo., México", "nombre_cientifico": "Tillandsia recurvata", "nombre_comun": "Gallinitas" }, "geometry": { "type": "Point", "coordinates": [ -98.562483137100003, 20.236575238799979 ] } },
{ "type": "Feature", "properties": { "Plaga": "Tilandsia bromelia", "Hospedero": null, "eventDate": "2016-12-30", "url": "http://conabio.inaturalist.org/observations/4920272", "url_image": "https://static.inaturalist.org/photos/5991176/medium.jpg?1483995797", "sitio": "Metztitlán, Hgo., México", "nombre_cientifico": "Tillandsia recurvata", "nombre_comun": "Gallinitas" }, "geometry": { "type": "Point", "coordinates": [ -98.779304623599998, 20.596010885099982 ] } },
{ "type": "Feature", "properties": { "Plaga": "Tilandsia bromelia", "Hospedero": null, "eventDate": "2017-01-22", "url": "http://conabio.inaturalist.org/observations/5004323", "url_image": "https://static.inaturalist.org/photos/6117901/medium.jpeg?1485358344", "sitio": "Tula", "nombre_cientifico": "Tillandsia recurvata", "nombre_comun": "Gallinitas" }, "geometry": { "type": "Point", "coordinates": [ -99.337263, 20.064719 ] } },
{ "type": "Feature", "properties": { "Plaga": "Tilandsia bromelia", "Hospedero": null, "eventDate": "2017-02-05", "url": "http://conabio.inaturalist.org/observations/5059259", "url_image": "https://static.inaturalist.org/photos/6204665/medium.jpeg?1486334753", "sitio": "Ajacuba, Hgo., México", "nombre_cientifico": "Tillandsia recurvata", "nombre_comun": "Gallinitas" }, "geometry": { "type": "Point", "coordinates": [ -99.131011962900004, 20.071410649299985 ] } },
{ "type": "Feature", "properties": { "Plaga": "Tilandsia bromelia", "Hospedero": null, "eventDate": "2017-02-05", "url": "http://conabio.inaturalist.org/observations/5059267", "url_image": "https://static.inaturalist.org/photos/6204733/medium.jpeg?1486334998", "sitio": "Ajacuba, Hgo., México", "nombre_cientifico": "Tillandsia usneoides", "nombre_comun": "Heno" }, "geometry": { "type": "Point", "coordinates": [ -99.131612777699999, 20.068508381099978 ] } },
{ "type": "Feature", "properties": { "Plaga": "Tilandsia bromelia", "Hospedero": null, "eventDate": "2017-02-07", "url": "https://www.inaturalist.org/observations/5071614", "url_image": "https://static.inaturalist.org/photos/6224494/medium.jpeg?1486519921", "sitio": "Ajacuba Hgo.", "nombre_cientifico": "Tillandsia recurvata", "nombre_comun": "Gallinitas" }, "geometry": { "type": "Point", "coordinates": [ -99.131349585, 20.068950841900001 ] } },
{ "type": "Feature", "properties": { "Plaga": "Tilandsia bromelia", "Hospedero": null, "eventDate": "2017-03-11", "url": "http://conabio.inaturalist.org/observations/5297427", "url_image": "https://static.inaturalist.org/photos/6555709/medium.jpeg?1489415667", "sitio": "Ajacuba, Hgo., México", "nombre_cientifico": "Tillandsia erubescens", "nombre_comun": null }, "geometry": { "type": "Point", "coordinates": [ -99.141836666700016, 20.028418333299964 ] } },
{ "type": "Feature", "properties": { "Plaga": "Tilandsia bromelia", "Hospedero": null, "eventDate": "2017-03-30", "url": "http://conabio.inaturalist.org/observations/5525269", "url_image": "https://static.inaturalist.org/photos/6816685/medium.jpeg?1491025873", "sitio": "Tepetitlán, Hgo., México", "nombre_cientifico": "Tillandsia recurvata", "nombre_comun": "Gallinitas" }, "geometry": { "type": "Point", "coordinates": [ -99.38798, 20.193033333300015 ] } },
{ "type": "Feature", "properties": { "Plaga": "Tilandsia bromelia", "Hospedero": null, "eventDate": "2006-12-24", "url": "http://conabio.inaturalist.org/observations/5866494", "url_image": "https://static.inaturalist.org/photos/7306033/medium.jpeg?1492658606", "sitio": "Eloxochitlán, Hgo., México", "nombre_cientifico": "Tillandsia usneoides", "nombre_comun": "Heno" }, "geometry": { "type": "Point", "coordinates": [ -98.853950500500005, 20.750977144099974 ] } },
{ "type": "Feature", "properties": { "Plaga": "Tilandsia bromelia", "Hospedero": null, "eventDate": "2006-12-24", "url": "http://conabio.inaturalist.org/observations/5866495", "url_image": "https://static.inaturalist.org/photos/7306038/medium.jpeg?1492658615", "sitio": "Eloxochitlán, Hgo., México", "nombre_cientifico": "Tillandsia usneoides", "nombre_comun": "Heno" }, "geometry": { "type": "Point", "coordinates": [ -98.853950500500005, 20.750977144099974 ] } },
{ "type": "Feature", "properties": { "Plaga": "Tilandsia bromelia", "Hospedero": null, "eventDate": "2017-04-29", "url": "http://conabio.inaturalist.org/observations/6047050", "url_image": "https://static.inaturalist.org/photos/7577156/medium.png?1493698491", "sitio": "Eloxochitlán, Hgo., México", "nombre_cientifico": "Tillandsia usneoides", "nombre_comun": "Heno" }, "geometry": { "type": "Point", "coordinates": [ -98.827857971200004, 20.722079783699972 ] } },
{ "type": "Feature", "properties": { "Plaga": "Tilandsia bromelia", "Hospedero": null, "eventDate": "2017-04-29", "url": "http://conabio.inaturalist.org/observations/6047065", "url_image": "https://static.inaturalist.org/photos/7577224/medium.png?1493698660", "sitio": "Eloxochitlán, Hgo., México", "nombre_cientifico": "Tillandsia", "nombre_comun": "Heno, gallitos y claveles de aire" }, "geometry": { "type": "Point", "coordinates": [ -98.827857971200004, 20.722079783699972 ] } },
{ "type": "Feature", "properties": { "Plaga": "Tilandsia bromelia", "Hospedero": null, "eventDate": "2017-04-29", "url": "http://conabio.inaturalist.org/observations/6047066", "url_image": "https://static.inaturalist.org/photos/7577230/medium.png?1493698669", "sitio": "Eloxochitlán, Hgo., México", "nombre_cientifico": "Tillandsia", "nombre_comun": "Heno, gallitos y claveles de aire" }, "geometry": { "type": "Point", "coordinates": [ -98.827857971200004, 20.722079783699972 ] } },
{ "type": "Feature", "properties": { "Plaga": "Tilandsia bromelia", "Hospedero": null, "eventDate": "2017-04-29", "url": "http://conabio.inaturalist.org/observations/6047074", "url_image": "https://static.inaturalist.org/photos/7577269/medium.png?1493698753", "sitio": "Eloxochitlán, Hgo., México", "nombre_cientifico": "Tillandsia", "nombre_comun": "Heno, gallitos y claveles de aire" }, "geometry": { "type": "Point", "coordinates": [ -98.827857971200004, 20.722079783699972 ] } },
{ "type": "Feature", "properties": { "Plaga": "Tilandsia bromelia", "Hospedero": null, "eventDate": "2017-04-29", "url": "http://conabio.inaturalist.org/observations/6047346", "url_image": "https://static.inaturalist.org/photos/7577780/medium.png?1493700653", "sitio": "Eloxochitlán, Hgo., México", "nombre_cientifico": "Tillandsia", "nombre_comun": "Heno, gallitos y claveles de aire" }, "geometry": { "type": "Point", "coordinates": [ -98.825454711899994, 20.696388611399993 ] } },
{ "type": "Feature", "properties": { "Plaga": "Tilandsia bromelia", "Hospedero": null, "eventDate": "2017-04-29", "url": "http://conabio.inaturalist.org/observations/6047348", "url_image": "https://static.inaturalist.org/photos/7577781/medium.png?1493700656", "sitio": "Eloxochitlán, Hgo., México", "nombre_cientifico": "Tillandsia recurvata", "nombre_comun": "Gallinitas" }, "geometry": { "type": "Point", "coordinates": [ -98.825454711899994, 20.696388611399993 ] } },
{ "type": "Feature", "properties": { "Plaga": "Tilandsia bromelia", "Hospedero": null, "eventDate": "2017-04-29", "url": "http://conabio.inaturalist.org/observations/6047372", "url_image": "https://static.inaturalist.org/photos/7577837/medium.png?1493700762", "sitio": "Eloxochitlán, Hgo., México", "nombre_cientifico": "Tillandsia recurvata", "nombre_comun": "Gallinitas" }, "geometry": { "type": "Point", "coordinates": [ -98.825454711899994, 20.696388611399993 ] } },
{ "type": "Feature", "properties": { "Plaga": "Tilandsia bromelia", "Hospedero": null, "eventDate": "2017-04-29", "url": "http://conabio.inaturalist.org/observations/6047377", "url_image": "https://static.inaturalist.org/photos/7577857/medium.png?1493700829", "sitio": "Eloxochitlán, Hgo., México", "nombre_cientifico": "Tillandsia juncea", "nombre_comun": "Magueyito" }, "geometry": { "type": "Point", "coordinates": [ -98.825454711899994, 20.696388611399993 ] } },
{ "type": "Feature", "properties": { "Plaga": "Tilandsia bromelia", "Hospedero": null, "eventDate": "2017-04-29", "url": "http://conabio.inaturalist.org/observations/6047378", "url_image": "https://static.inaturalist.org/photos/7577865/medium.png?1493700846", "sitio": "Eloxochitlán, Hgo., México", "nombre_cientifico": "Tillandsia juncea", "nombre_comun": "Magueyito" }, "geometry": { "type": "Point", "coordinates": [ -98.825454711899994, 20.696388611399993 ] } },
{ "type": "Feature", "properties": { "Plaga": "Tilandsia bromelia", "Hospedero": null, "eventDate": "2017-04-29", "url": "http://conabio.inaturalist.org/observations/6047381", "url_image": "https://static.inaturalist.org/photos/7577871/medium.png?1493700861", "sitio": "Eloxochitlán, Hgo., México", "nombre_cientifico": "Tillandsia juncea", "nombre_comun": "Magueyito" }, "geometry": { "type": "Point", "coordinates": [ -98.825454711899994, 20.696388611399993 ] } },
{ "type": "Feature", "properties": { "Plaga": "Tilandsia bromelia", "Hospedero": null, "eventDate": "2017-05-01", "url": "http://conabio.inaturalist.org/observations/6074693", "url_image": "https://static.inaturalist.org/photos/7600355/medium.png?1493830680", "sitio": "Eloxochitlán, Hgo., México", "nombre_cientifico": "Tillandsia parryi", "nombre_comun": null }, "geometry": { "type": "Point", "coordinates": [ -98.793869018600006, 20.750656092599996 ] } },
{ "type": "Feature", "properties": { "Plaga": "Tilandsia bromelia", "Hospedero": null, "eventDate": "2017-05-01", "url": "http://conabio.inaturalist.org/observations/6074702", "url_image": "https://static.inaturalist.org/photos/7600397/medium.png?1493830795", "sitio": "Eloxochitlán, Hgo., México", "nombre_cientifico": "Tillandsia", "nombre_comun": "Heno, gallitos y claveles de aire" }, "geometry": { "type": "Point", "coordinates": [ -98.793869018600006, 20.750656092599996 ] } },
{ "type": "Feature", "properties": { "Plaga": "Tilandsia bromelia", "Hospedero": null, "eventDate": "2014-05-24", "url": "http://conabio.inaturalist.org/observations/6177223", "url_image": "https://static.inaturalist.org/photos/7749429/medium.jpeg?1494550030", "sitio": "Tlanchinol, Hgo., México", "nombre_cientifico": "Tillandsia deppeana", "nombre_comun": null }, "geometry": { "type": "Point", "coordinates": [ -98.631176948499999, 20.988127359400025 ] } },
{ "type": "Feature", "properties": { "Plaga": "Tilandsia bromelia", "Hospedero": null, "eventDate": "2014-05-22", "url": "http://conabio.inaturalist.org/observations/6182358", "url_image": "https://static.inaturalist.org/photos/7756443/medium.jpeg?1494605816", "sitio": "Cardonal, Hgo., México", "nombre_cientifico": "Tillandsia", "nombre_comun": "Heno, gallitos y claveles de aire" }, "geometry": { "type": "Point", "coordinates": [ -98.977847099300007, 20.535374274500004 ] } },
{ "type": "Feature", "properties": { "Plaga": "Tilandsia bromelia", "Hospedero": null, "eventDate": "2014-05-22", "url": "http://conabio.inaturalist.org/observations/6182359", "url_image": "https://static.inaturalist.org/photos/7756446/medium.jpeg?1494605836", "sitio": "Cardonal, Hgo., México", "nombre_cientifico": "Tillandsia", "nombre_comun": "Heno, gallitos y claveles de aire" }, "geometry": { "type": "Point", "coordinates": [ -98.977831006100004, 20.535872999399977 ] } },
{ "type": "Feature", "properties": { "Plaga": "Tilandsia bromelia", "Hospedero": null, "eventDate": "2016-04-02", "url": "http://conabio.inaturalist.org/observations/6183317", "url_image": "https://static.inaturalist.org/photos/7757624/medium.jpeg?1494609426", "sitio": "Acaxochitlán, Hgo., México", "nombre_cientifico": "Tillandsia gymnobotrya", "nombre_comun": "Maguey de cruz" }, "geometry": { "type": "Point", "coordinates": [ -98.191573619799996, 20.169921486 ] } },
{ "type": "Feature", "properties": { "Plaga": "Tilandsia bromelia", "Hospedero": null, "eventDate": "2016-05-01", "url": "http://conabio.inaturalist.org/observations/6260839", "url_image": "https://static.inaturalist.org/photos/7873888/medium.jpeg?1495125665", "sitio": "Cardonal, Hidalgo, Mexico", "nombre_cientifico": "Tillandsia inopinata", "nombre_comun": null }, "geometry": { "type": "Point", "coordinates": [ -98.998645, 20.651058333300011 ] } },
{ "type": "Feature", "properties": { "Plaga": "Tilandsia bromelia", "Hospedero": null, "eventDate": "2017-05-30", "url": "https://www.inaturalist.org/observations/6451339", "url_image": "https://static.inaturalist.org/photos/8152884/medium.jpeg?1496280973", "sitio": "Metztitlán, MX-HI, MX", "nombre_cientifico": "Tillandsia recurvata", "nombre_comun": "Gallinitas" }, "geometry": { "type": "Point", "coordinates": [ -98.71362492, 20.506785370000028 ] } },
{ "type": "Feature", "properties": { "Plaga": "Tilandsia bromelia", "Hospedero": null, "eventDate": "2017-06-18", "url": "http://conabio.inaturalist.org/observations/6710793", "url_image": "https://static.inaturalist.org/photos/8514650/medium.jpeg?1497829665", "sitio": "Ajacuba, Hgo., México", "nombre_cientifico": "Tillandsia usneoides", "nombre_comun": "Heno" }, "geometry": { "type": "Point", "coordinates": [ -99.130926132200003, 20.0628649282 ] } },
{ "type": "Feature", "properties": { "Plaga": "Tilandsia bromelia", "Hospedero": null, "eventDate": "2017-06-18", "url": "http://conabio.inaturalist.org/observations/6710798", "url_image": "https://static.inaturalist.org/photos/8514686/medium.jpeg?1497829796", "sitio": "Ajacuba, Hgo., México", "nombre_cientifico": "Tillandsia usneoides", "nombre_comun": "Heno" }, "geometry": { "type": "Point", "coordinates": [ -99.128651619, 20.058753141799972 ] } },
{ "type": "Feature", "properties": { "Plaga": "Tilandsia bromelia", "Hospedero": null, "eventDate": "2017-06-18", "url": "http://conabio.inaturalist.org/observations/6710826", "url_image": "https://static.inaturalist.org/photos/8514889/medium.jpeg?1497830335", "sitio": "Ajacuba, Hgo., México", "nombre_cientifico": "Tillandsia recurvata", "nombre_comun": "Gallinitas" }, "geometry": { "type": "Point", "coordinates": [ -99.129981994600001, 20.077537483499999 ] } },
{ "type": "Feature", "properties": { "Plaga": "Tilandsia bromelia", "Hospedero": null, "eventDate": "2017-05-31", "url": "http://conabio.inaturalist.org/observations/6732412", "url_image": "https://static.inaturalist.org/photos/8547818/medium.jpeg?1497981410", "sitio": "Hidalgo, MX", "nombre_cientifico": "Tillandsia imperialis", "nombre_comun": "Tecolote" }, "geometry": { "type": "Point", "coordinates": [ -98.600065561099996, 20.795019154799999 ] } },
{ "type": "Feature", "properties": { "Plaga": "Tilandsia bromelia", "Hospedero": null, "eventDate": "2017-07-03", "url": "https://www.inaturalist.org/observations/6902756", "url_image": "https://static.inaturalist.org/photos/8809877/medium.jpeg?1499097261", "sitio": "Zimapán, MX-HI, MX", "nombre_cientifico": "Tillandsia recurvata", "nombre_comun": "Gallinitas" }, "geometry": { "type": "Point", "coordinates": [ -99.33804, 20.591491666700023 ] } },
{ "type": "Feature", "properties": { "Plaga": "Tilandsia bromelia", "Hospedero": null, "eventDate": "2017-07-13", "url": "http://conabio.inaturalist.org/observations/7068141", "url_image": "https://static.inaturalist.org/photos/9075600/medium.jpeg?1500161300", "sitio": "Mineral del Chico, Hgo., México", "nombre_cientifico": "Tillandsia violacea", "nombre_comun": "Magueyito" }, "geometry": { "type": "Point", "coordinates": [ -98.762776851699996, 20.184335608199987 ] } },
{ "type": "Feature", "properties": { "Plaga": "Tilandsia bromelia", "Hospedero": null, "eventDate": "2017-07-13", "url": "http://conabio.inaturalist.org/observations/7068482", "url_image": "https://static.inaturalist.org/photos/9076164/medium.jpeg?1500163368", "sitio": "Mineral del Chico, Hgo., México", "nombre_cientifico": "Tillandsia violacea", "nombre_comun": "Magueyito" }, "geometry": { "type": "Point", "coordinates": [ -98.770665228000013, 20.189123796000025 ] } },
{ "type": "Feature", "properties": { "Plaga": "Tilandsia bromelia", "Hospedero": null, "eventDate": "2017-07-14", "url": "http://conabio.inaturalist.org/observations/7074103", "url_image": "https://static.inaturalist.org/photos/9085246/medium.jpeg?1500213312", "sitio": "Real del Monte, Hgo., México", "nombre_cientifico": "Tillandsia", "nombre_comun": "Heno, gallitos y claveles de aire" }, "geometry": { "type": "Point", "coordinates": [ -98.626340925, 20.112192917200016 ] } },
{ "type": "Feature", "properties": { "Plaga": "Tilandsia bromelia", "Hospedero": null, "eventDate": "2017-07-14", "url": "http://conabio.inaturalist.org/observations/7074527", "url_image": "https://static.inaturalist.org/photos/9085784/medium.jpeg?1500215548", "sitio": "Real del Monte, Hgo., México", "nombre_cientifico": "Tillandsia", "nombre_comun": "Heno, gallitos y claveles de aire" }, "geometry": { "type": "Point", "coordinates": [ -98.627513051, 20.114192713199984 ] } },
{ "type": "Feature", "properties": { "Plaga": "Tilandsia bromelia", "Hospedero": null, "eventDate": "2017-07-24", "url": "http://conabio.inaturalist.org/observations/7342702", "url_image": "https://static.inaturalist.org/photos/9516300/medium.jpg?1501817350", "sitio": "Zacualtipan, Hidalgo", "nombre_cientifico": "Tillandsia", "nombre_comun": "Heno, gallitos y claveles de aire" }, "geometry": { "type": "Point", "coordinates": [ -98.653569, 20.648405 ] } },
{ "type": "Feature", "properties": { "Plaga": "Tilandsia bromelia", "Hospedero": null, "eventDate": "2013-05-16", "url": "http://conabio.inaturalist.org/observations/7449095", "url_image": "https://static.inaturalist.org/photos/9687191/medium.jpeg?1502471930", "sitio": "Carretera 105 Pachuca -Tampico con Desviacion a Mineral del Chico Km 7.5, Mineral del Chico, Hgo., México", "nombre_cientifico": "Tillandsia violacea", "nombre_comun": "Magueyito" }, "geometry": { "type": "Point", "coordinates": [ -98.7158875, 20.198232499999978 ] } },
{ "type": "Feature", "properties": { "Plaga": "Tilandsia bromelia", "Hospedero": null, "eventDate": "2017-08-21", "url": "https://www.inaturalist.org/observations/7599103", "url_image": "https://static.inaturalist.org/photos/9928203/medium.jpeg?1503368478", "sitio": "Ajacuba, Hgo., México", "nombre_cientifico": "Tillandsia usneoides", "nombre_comun": "Heno" }, "geometry": { "type": "Point", "coordinates": [ -99.127879142799998, 20.053038789100007 ] } },
{ "type": "Feature", "properties": { "Plaga": "Tilandsia bromelia", "Hospedero": null, "eventDate": "2017-08-21", "url": "https://www.inaturalist.org/observations/7599448", "url_image": "https://static.inaturalist.org/photos/9928754/medium.jpeg?1503370486", "sitio": "Ajacuba, Hgo., México", "nombre_cientifico": "Tillandsia usneoides", "nombre_comun": "Heno" }, "geometry": { "type": "Point", "coordinates": [ -99.127385616300003, 20.055427353300008 ] } },
{ "type": "Feature", "properties": { "Plaga": "Tilandsia bromelia", "Hospedero": null, "eventDate": "2017-08-21", "url": "https://www.inaturalist.org/observations/7600191", "url_image": "https://static.inaturalist.org/photos/9929800/medium.jpeg?1503373928", "sitio": "Ajacuba, Hgo., México", "nombre_cientifico": "Tillandsia", "nombre_comun": "Heno, gallitos y claveles de aire" }, "geometry": { "type": "Point", "coordinates": [ -99.127879142799998, 20.057301897300007 ] } },
{ "type": "Feature", "properties": { "Plaga": "Tilandsia bromelia", "Hospedero": null, "eventDate": "2017-09-25", "url": "https://www.inaturalist.org/observations/8146749", "url_image": "https://static.inaturalist.org/photos/10784467/medium.jpeg?1506558163", "sitio": "Progreso de Obregón, MX-HI, MX", "nombre_cientifico": "Tillandsia recurvata", "nombre_comun": "Gallinitas" }, "geometry": { "type": "Point", "coordinates": [ -99.183810576799999, 20.300781819499985 ] } },
{ "type": "Feature", "properties": { "Plaga": "Tilandsia bromelia", "Hospedero": null, "eventDate": "2015-06-04", "url": "https://www.inaturalist.org/observations/8367954", "url_image": "https://static.inaturalist.org/photos/11124394/medium.jpeg?1507773604", "sitio": "Hidalgo, MX", "nombre_cientifico": "Tillandsia mauryana", "nombre_comun": null }, "geometry": { "type": "Point", "coordinates": [ -98.917557657200007, 20.784306331599982 ] } },
{ "type": "Feature", "properties": { "Plaga": "Tilandsia bromelia", "Hospedero": null, "eventDate": "2015-10-02", "url": "https://www.inaturalist.org/observations/8381487", "url_image": "https://static.inaturalist.org/photos/11147164/medium.jpeg?1507869764", "sitio": "Atotonilco el Grande, Hgo., México", "nombre_cientifico": "Tillandsia recurvata", "nombre_comun": "Gallinitas" }, "geometry": { "type": "Point", "coordinates": [ -98.707351684599999, 20.396445070499997 ] } },
{ "type": "Feature", "properties": { "Plaga": "Tilandsia bromelia", "Hospedero": null, "eventDate": "2017-10-22", "url": "https://www.inaturalist.org/observations/8515622", "url_image": "https://static.inaturalist.org/photos/11366808/medium.jpg?1508729066", "sitio": "Mineral del Chico, HGO, Mineral del Chico, HGO, MX", "nombre_cientifico": "Tillandsia erubescens", "nombre_comun": null }, "geometry": { "type": "Point", "coordinates": [ -98.719046666699995, 20.20252 ] } },
{ "type": "Feature", "properties": { "Plaga": "Tilandsia bromelia", "Hospedero": null, "eventDate": "2015-10-08", "url": "https://www.inaturalist.org/observations/8674640", "url_image": "https://static.inaturalist.org/photos/11621935/medium.jpeg?1509776532", "sitio": "Metztitlán, Hgo., México", "nombre_cientifico": "Tillandsia mauryana", "nombre_comun": null }, "geometry": { "type": "Point", "coordinates": [ -98.751382827800001, 20.589683605800008 ] } },
{ "type": "Feature", "properties": { "Plaga": "Tilandsia bromelia", "Hospedero": null, "eventDate": "2015-03-14", "url": "https://www.inaturalist.org/observations/8714755", "url_image": "https://static.inaturalist.org/photos/11686585/medium.jpeg?1510009886", "sitio": "San Pablo Tetlapayac, Hgo., México", "nombre_cientifico": "Tillandsia ionantha", "nombre_comun": "Gallito" }, "geometry": { "type": "Point", "coordinates": [ -98.9208333, 20.6399999 ] } },
{ "type": "Feature", "properties": { "Plaga": "Tilandsia bromelia", "Hospedero": null, "eventDate": "2015-07-09", "url": "https://www.inaturalist.org/observations/8729075", "url_image": "https://static.inaturalist.org/photos/11711168/medium.jpeg?1510124395", "sitio": "Hidalgo, MX", "nombre_cientifico": "Tillandsia mauryana", "nombre_comun": null }, "geometry": { "type": "Point", "coordinates": [ -98.608600341300004, 20.544262288500008 ] } },
{ "type": "Feature", "properties": { "Plaga": "Tilandsia bromelia", "Hospedero": null, "eventDate": "2015-07-09", "url": "https://www.inaturalist.org/observations/8729076", "url_image": "https://static.inaturalist.org/photos/11711170/medium.jpeg?1510124467", "sitio": "Hidalgo, MX", "nombre_cientifico": "Tillandsia mauryana", "nombre_comun": null }, "geometry": { "type": "Point", "coordinates": [ -98.693390450400003, 20.449243244400002 ] } },
{ "type": "Feature", "properties": { "Plaga": "Tilandsia bromelia", "Hospedero": null, "eventDate": "2015-07-22", "url": "https://www.inaturalist.org/observations/8733617", "url_image": "https://static.inaturalist.org/photos/11719320/medium.jpeg?1510176617", "sitio": "Carretera 105 Pachuca -Tampico con Desviacion a Mineral del Chico Km 7.5, Mineral del Chico, Hgo., México", "nombre_cientifico": "Tillandsia violacea", "nombre_comun": "Magueyito" }, "geometry": { "type": "Point", "coordinates": [ -98.7158875, 20.198232499999978 ] } },
{ "type": "Feature", "properties": { "Plaga": "Tilandsia bromelia", "Hospedero": null, "eventDate": "2016-01-14", "url": "https://www.inaturalist.org/observations/8758452", "url_image": "https://static.inaturalist.org/photos/11761226/medium.jpeg?1510381769", "sitio": "San Pablo Tetlapayac, Hgo., México", "nombre_cientifico": "Tillandsia ionantha", "nombre_comun": "Gallito" }, "geometry": { "type": "Point", "coordinates": [ -98.9208333, 20.6399999 ] } },
{ "type": "Feature", "properties": { "Plaga": "Tilandsia bromelia", "Hospedero": null, "eventDate": "2016-01-14", "url": "https://www.inaturalist.org/observations/8758463", "url_image": "https://static.inaturalist.org/photos/11761387/medium.jpeg?1510382519", "sitio": "Hidalgo, MX", "nombre_cientifico": "Tillandsia mauryana", "nombre_comun": null }, "geometry": { "type": "Point", "coordinates": [ -98.830949122299998, 20.705976948299984 ] } },
{ "type": "Feature", "properties": { "Plaga": "Tilandsia bromelia", "Hospedero": null, "eventDate": "2016-02-18", "url": "https://www.inaturalist.org/observations/8799052", "url_image": "https://static.inaturalist.org/photos/11812770/medium.jpeg?1510612861", "sitio": "Eloxochitlán, Hgo., México", "nombre_cientifico": "Tillandsia", "nombre_comun": "Heno, gallitos y claveles de aire" }, "geometry": { "type": "Point", "coordinates": [ -98.816356658900006, 20.737010775499989 ] } },
{ "type": "Feature", "properties": { "Plaga": "Tilandsia bromelia", "Hospedero": null, "eventDate": "2016-02-28", "url": "https://www.inaturalist.org/observations/8799066", "url_image": "https://static.inaturalist.org/photos/11813183/medium.jpeg?1510613961", "sitio": "Hidalgo, MX", "nombre_cientifico": "Tillandsia mauryana", "nombre_comun": null }, "geometry": { "type": "Point", "coordinates": [ -98.775868304499994, 20.442388231799992 ] } },
{ "type": "Feature", "properties": { "Plaga": "Tilandsia bromelia", "Hospedero": null, "eventDate": "2016-03-10", "url": "https://www.inaturalist.org/observations/8799087", "url_image": "https://static.inaturalist.org/photos/11814027/medium.jpeg?1510616221", "sitio": "Hidalgo, MX", "nombre_cientifico": "Tillandsia", "nombre_comun": "Heno, gallitos y claveles de aire" }, "geometry": { "type": "Point", "coordinates": [ -98.962352834, 20.633998062200018 ] } },
{ "type": "Feature", "properties": { "Plaga": "Tilandsia bromelia", "Hospedero": null, "eventDate": "2016-03-30", "url": "https://www.inaturalist.org/observations/8799095", "url_image": "https://static.inaturalist.org/photos/11814298/medium.jpeg?1510616901", "sitio": "San Juan Amajaque, Eloxochitlán, Hgo., México", "nombre_cientifico": "Tillandsia ionantha", "nombre_comun": "Gallito" }, "geometry": { "type": "Point", "coordinates": [ -98.935489654500003, 20.722802284999982 ] } },
{ "type": "Feature", "properties": { "Plaga": "Tilandsia bromelia", "Hospedero": null, "eventDate": "2016-05-18", "url": "https://www.inaturalist.org/observations/8799950", "url_image": "https://static.inaturalist.org/photos/11815994/medium.jpeg?1510623102", "sitio": "Hidalgo, MX", "nombre_cientifico": "Tillandsia", "nombre_comun": "Heno, gallitos y claveles de aire" }, "geometry": { "type": "Point", "coordinates": [ -98.814501947200014, 20.613176145200001 ] } },
{ "type": "Feature", "properties": { "Plaga": "Tilandsia bromelia", "Hospedero": null, "eventDate": "2017-10-31", "url": "https://www.inaturalist.org/observations/8914083", "url_image": "https://static.inaturalist.org/photos/12000374/medium.jpg?1511492098", "sitio": "Mineral del Chico, Hgo., México", "nombre_cientifico": "Tillandsia violacea", "nombre_comun": "Magueyito" }, "geometry": { "type": "Point", "coordinates": [ -98.711810512200017, 20.19307702730001 ] } },
{ "type": "Feature", "properties": { "Plaga": "Tilandsia bromelia", "Hospedero": null, "eventDate": "2017-11-26", "url": "https://www.inaturalist.org/observations/8962139", "url_image": "https://static.inaturalist.org/photos/12081536/medium.jpeg?1511847869", "sitio": "Huasca de Ocampo, Hgo., México", "nombre_cientifico": "Tillandsia usneoides", "nombre_comun": "Heno" }, "geometry": { "type": "Point", "coordinates": [ -98.562941551199998, 20.235917432699996 ] } },
{ "type": "Feature", "properties": { "Plaga": "Tilandsia bromelia", "Hospedero": null, "eventDate": "2017-11-25", "url": "https://www.inaturalist.org/observations/9035314", "url_image": "https://static.inaturalist.org/photos/12182676/medium.jpg?1512320879", "sitio": "México", "nombre_cientifico": "Tillandsia", "nombre_comun": "Heno, gallitos y claveles de aire" }, "geometry": { "type": "Point", "coordinates": [ -98.354957616500002, 20.406009408600013 ] } },
{ "type": "Feature", "properties": { "Plaga": "Tilandsia bromelia", "Hospedero": null, "eventDate": "2017-11-25", "url": "https://www.inaturalist.org/observations/9059849", "url_image": "https://static.inaturalist.org/photos/12231681/medium.jpg?1512527223", "sitio": "San Bartolo Tutotepec, Hgo., México", "nombre_cientifico": "Tillandsia", "nombre_comun": "Heno, gallitos y claveles de aire" }, "geometry": { "type": "Point", "coordinates": [ -98.248672485399993, 20.416877866499988 ] } },
{ "type": "Feature", "properties": { "Plaga": "Tilandsia bromelia", "Hospedero": null, "eventDate": "2017-12-05", "url": "https://www.inaturalist.org/observations/9308684", "url_image": "https://static.inaturalist.org/photos/12624794/medium.jpg?1514670018", "sitio": "Tenango de Doria, Hgo., México", "nombre_cientifico": "Tillandsia usneoides", "nombre_comun": "Heno" }, "geometry": { "type": "Point", "coordinates": [ -98.258070945700013, 20.344264799400023 ] } },
{ "type": "Feature", "properties": { "Plaga": "Tilandsia bromelia", "Hospedero": null, "eventDate": "2018-01-25", "url": "https://www.inaturalist.org/observations/9644284", "url_image": "https://static.inaturalist.org/photos/13171832/medium.jpeg?1517160327", "sitio": "Unnamed Road, Hidalgo, México", "nombre_cientifico": "Tillandsia erubescens", "nombre_comun": null }, "geometry": { "type": "Point", "coordinates": [ -98.594763279, 20.196128961799992 ] } },
{ "type": "Feature", "properties": { "Plaga": "Tilandsia bromelia", "Hospedero": null, "eventDate": "2018-01-27", "url": "https://www.inaturalist.org/observations/9653636", "url_image": "https://static.inaturalist.org/photos/13187885/medium.jpg?1517204333", "sitio": "Metztitlán, Hgo., México", "nombre_cientifico": "Tillandsia inopinata", "nombre_comun": null }, "geometry": { "type": "Point", "coordinates": [ -98.700369559199999, 20.462815980699975 ] } },
{ "type": "Feature", "properties": { "Plaga": "Tilandsia bromelia", "Hospedero": null, "eventDate": "2017-01-27", "url": "https://www.inaturalist.org/observations/9669831", "url_image": "https://static.inaturalist.org/photos/13214217/medium.jpg?1517335264", "sitio": "Hidalgo, MX", "nombre_cientifico": "Tillandsia inopinata", "nombre_comun": null }, "geometry": { "type": "Point", "coordinates": [ -98.646114106100015, 20.590521839800004 ] } },
{ "type": "Feature", "properties": { "Plaga": "Tilandsia bromelia", "Hospedero": null, "eventDate": "2018-03-03", "url": "https://www.inaturalist.org/observations/10096720", "url_image": "https://static.inaturalist.org/photos/13911769/medium.jpg?1520227668", "sitio": "San Felipe Orizatlán, Hidalgo, Mexico", "nombre_cientifico": "Tillandsia inopinata", "nombre_comun": null }, "geometry": { "type": "Point", "coordinates": [ -98.583602888900003, 21.189315777800005 ] } },
{ "type": "Feature", "properties": { "Plaga": "Tilandsia bromelia", "Hospedero": null, "eventDate": "2018-03-04", "url": "https://www.inaturalist.org/observations/10096729", "url_image": "https://static.inaturalist.org/photos/13911785/medium.jpg?1520227775", "sitio": "San Agustín Metzquititlán, Hgo., México", "nombre_cientifico": "Tillandsia recurvata", "nombre_comun": "Gallinitas" }, "geometry": { "type": "Point", "coordinates": [ -98.66301725, 20.467962250000014 ] } },
{ "type": "Feature", "properties": { "Plaga": "Tilandsia bromelia", "Hospedero": null, "eventDate": "2018-03-04", "url": "https://www.inaturalist.org/observations/10148349", "url_image": "https://static.inaturalist.org/photos/14002002/medium.jpg?1520569516", "sitio": "Ixmiquilpan, Hgo., México", "nombre_cientifico": "Tillandsia", "nombre_comun": "Heno, gallitos y claveles de aire" }, "geometry": { "type": "Point", "coordinates": [ -99.168341875300001, 20.446474465300007 ] } },
{ "type": "Feature", "properties": { "Plaga": "Tilandsia bromelia", "Hospedero": null, "eventDate": "2018-03-11", "url": "https://www.inaturalist.org/observations/10198881", "url_image": "https://static.inaturalist.org/photos/14088824/medium.jpeg?1520833098", "sitio": "Ajacuba, Hgo., México", "nombre_cientifico": "Tillandsia usneoides", "nombre_comun": "Heno" }, "geometry": { "type": "Point", "coordinates": [ -99.1289520264, 20.05972063059998 ] } },
{ "type": "Feature", "properties": { "Plaga": "Tilandsia bromelia", "Hospedero": null, "eventDate": "2018-03-11", "url": "https://www.inaturalist.org/observations/10198886", "url_image": "https://static.inaturalist.org/photos/14088860/medium.jpeg?1520833221", "sitio": "Ajacuba, Hgo., México", "nombre_cientifico": "Tillandsia", "nombre_comun": "Heno, gallitos y claveles de aire" }, "geometry": { "type": "Point", "coordinates": [ -99.130067825300003, 20.06084936009999 ] } },
{ "type": "Feature", "properties": { "Plaga": "Tilandsia bromelia", "Hospedero": null, "eventDate": "2018-03-10", "url": "https://www.inaturalist.org/observations/10215998", "url_image": "https://static.inaturalist.org/photos/14115128/medium.jpg?1520914891", "sitio": "Tlahuiltepa, Hgo., México", "nombre_cientifico": "Tillandsia", "nombre_comun": "Heno, gallitos y claveles de aire" }, "geometry": { "type": "Point", "coordinates": [ -98.983006695100002, 20.909955901500016 ] } },
{ "type": "Feature", "properties": { "Plaga": "Tilandsia bromelia", "Hospedero": null, "eventDate": "2018-03-10", "url": "https://www.inaturalist.org/observations/10216000", "url_image": "https://static.inaturalist.org/photos/14115149/medium.jpg?1520914974", "sitio": "Tlahuiltepa, Hgo., México", "nombre_cientifico": "Tillandsia deppeana", "nombre_comun": null }, "geometry": { "type": "Point", "coordinates": [ -99.010993944399999, 20.93379211109999 ] } },
{ "type": "Feature", "properties": { "Plaga": "Tilandsia bromelia", "Hospedero": null, "eventDate": "2018-03-10", "url": "https://www.inaturalist.org/observations/10229762", "url_image": "https://static.inaturalist.org/photos/14136643/medium.jpg?1520993562", "sitio": "Hidalgo, MX", "nombre_cientifico": "Tillandsia deppeana", "nombre_comun": null }, "geometry": { "type": "Point", "coordinates": [ -99.0468415972, 20.886084455300011 ] } },
{ "type": "Feature", "properties": { "Plaga": "Tilandsia bromelia", "Hospedero": null, "eventDate": "2018-03-10", "url": "https://www.inaturalist.org/observations/10229775", "url_image": "https://static.inaturalist.org/photos/14137261/medium.jpg?1520995209", "sitio": "Hidalgo, MX", "nombre_cientifico": "Tillandsia deppeana", "nombre_comun": null }, "geometry": { "type": "Point", "coordinates": [ -99.1891162509, 20.964729678299978 ] } },
{ "type": "Feature", "properties": { "Plaga": "Tilandsia bromelia", "Hospedero": null, "eventDate": "2018-03-10", "url": "https://www.inaturalist.org/observations/10229821", "url_image": "https://static.inaturalist.org/photos/14139569/medium.jpg?1521003449", "sitio": "Hidalgo, MX", "nombre_cientifico": "Tillandsia deppeana", "nombre_comun": null }, "geometry": { "type": "Point", "coordinates": [ -98.832252481300003, 20.961944104399969 ] } },
{ "type": "Feature", "properties": { "Plaga": "Tilandsia bromelia", "Hospedero": null, "eventDate": "2018-03-27", "url": "https://www.inaturalist.org/observations/10490173", "url_image": "https://static.inaturalist.org/photos/14587564/medium.jpg?1523496695", "sitio": "Mineral del Chico, Hgo., México", "nombre_cientifico": "Tillandsia violacea", "nombre_comun": "Magueyito" }, "geometry": { "type": "Point", "coordinates": [ -98.705534122200007, 20.198357382799987 ] } },
{ "type": "Feature", "properties": { "Plaga": "Tilandsia bromelia", "Hospedero": null, "eventDate": "2018-03-29", "url": "https://www.inaturalist.org/observations/10491019", "url_image": "https://static.inaturalist.org/photos/14610950/medium.jpg?1522390195", "sitio": "Huichapan, Huichapan, HGO, MX", "nombre_cientifico": "Tillandsia", "nombre_comun": "Heno, gallitos y claveles de aire" }, "geometry": { "type": "Point", "coordinates": [ -99.638453083800002, 20.325336821600001 ] } },
{ "type": "Feature", "properties": { "Plaga": "Tilandsia bromelia", "Hospedero": null, "eventDate": "2018-04-13", "url": "https://www.inaturalist.org/observations/10888418", "url_image": "https://static.inaturalist.org/photos/15295905/medium.jpg?1523684116", "sitio": "Metztitlán, Metztitlán, HGO, MX", "nombre_cientifico": "Tillandsia recurvata", "nombre_comun": "Gallinitas" }, "geometry": { "type": "Point", "coordinates": [ -98.756133333299999, 20.5898583333 ] } },
{ "type": "Feature", "properties": { "Plaga": "Tilandsia bromelia", "Hospedero": null, "eventDate": "2018-03-30", "url": "https://www.inaturalist.org/observations/11013164", "url_image": "https://static.inaturalist.org/photos/15525990/medium.jpg?1523894401", "sitio": "43516 Huasca de Ocampo, HGO, Huasca de Ocampo, HGO, MX", "nombre_cientifico": "Tillandsia usneoides", "nombre_comun": "Heno" }, "geometry": { "type": "Point", "coordinates": [ -98.562605, 20.23573 ] } },
{ "type": "Feature", "properties": { "Plaga": "Tilandsia bromelia", "Hospedero": null, "eventDate": "2018-04-11", "url": "https://www.inaturalist.org/observations/11173674", "url_image": "https://static.inaturalist.org/photos/15821581/medium.jpeg?1524157364", "sitio": "El Calvario, 42400 Huichapan, Hgo., México", "nombre_cientifico": "Tillandsia recurvata", "nombre_comun": "Gallinitas" }, "geometry": { "type": "Point", "coordinates": [ -99.642798900599999, 20.377799791 ] } },
{ "type": "Feature", "properties": { "Plaga": "Tilandsia bromelia", "Hospedero": null, "eventDate": "2018-04-14", "url": "https://www.inaturalist.org/observations/11326626", "url_image": "https://static.inaturalist.org/photos/16128304/medium.jpg?1524419178", "sitio": "42149 Mineral del Monte, HGO, Mineral del Monte, HGO, MX", "nombre_cientifico": "Tillandsia", "nombre_comun": "Heno, gallitos y claveles de aire" }, "geometry": { "type": "Point", "coordinates": [ -98.628471666699994, 20.110011166700001 ] } },
{ "type": "Feature", "properties": { "Plaga": "Tilandsia bromelia", "Hospedero": null, "eventDate": "2018-03-31", "url": "https://www.inaturalist.org/observations/11378495", "url_image": "https://static.inaturalist.org/photos/16215809/medium.jpg?1524530662", "sitio": "43078 Huazalingo, HGO, Huazalingo, HGO, MX", "nombre_cientifico": "Tillandsia", "nombre_comun": "Heno, gallitos y claveles de aire" }, "geometry": { "type": "Point", "coordinates": [ -98.495178333300004, 21.040191666699979 ] } },
{ "type": "Feature", "properties": { "Plaga": "Tilandsia bromelia", "Hospedero": null, "eventDate": "2018-04-27", "url": "https://www.inaturalist.org/observations/12201036", "url_image": "https://static.inaturalist.org/photos/17525486/medium.jpeg?1525629139", "sitio": "San Agustín Metzquititlán, Hgo., México", "nombre_cientifico": "Tillandsia albida", "nombre_comun": null }, "geometry": { "type": "Point", "coordinates": [ -98.664157390599996, 20.461864194199997 ] } },
{ "type": "Feature", "properties": { "Plaga": "Tilandsia bromelia", "Hospedero": null, "eventDate": "2018-05-13", "url": "https://www.inaturalist.org/observations/12599839", "url_image": "https://static.inaturalist.org/photos/18215029/medium.jpg?1526725207", "sitio": "Mineral del Chico, HGO, Mineral del Chico, HGO, MX", "nombre_cientifico": "Tillandsia violacea", "nombre_comun": "Magueyito" }, "geometry": { "type": "Point", "coordinates": [ -98.716216666700021, 20.195196666699992 ] } },
{ "type": "Feature", "properties": { "Plaga": "Tilandsia bromelia", "Hospedero": null, "eventDate": "2018-05-11", "url": "https://www.inaturalist.org/observations/13217739", "url_image": "https://static.inaturalist.org/photos/19329026/medium.jpg?1528412079", "sitio": "Xochicoatlán, Hgo., México", "nombre_cientifico": "Tillandsia ionantha", "nombre_comun": "Gallito" }, "geometry": { "type": "Point", "coordinates": [ -98.6834392, 20.7768398 ] } },
{ "type": "Feature", "properties": { "Plaga": "Tilandsia bromelia", "Hospedero": null, "eventDate": "2018-06-14", "url": "https://www.inaturalist.org/observations/13432862", "url_image": "https://static.inaturalist.org/photos/19711982/medium.jpg?1529010348", "sitio": "16 de Enero ( El Tesoro ), 42800 Hgo., México", "nombre_cientifico": "Tillandsia recurvata", "nombre_comun": "Gallinitas" }, "geometry": { "type": "Point", "coordinates": [ -99.336645864, 20.064489331300003 ] } },
{ "type": "Feature", "properties": { "Plaga": "Tilandsia bromelia", "Hospedero": null, "eventDate": "2018-06-20", "url": "https://www.inaturalist.org/observations/13656192", "url_image": "https://static.inaturalist.org/photos/20106632/medium.jpeg?1529631294", "sitio": "Centro, Pachuca de Soto, Hgo., México", "nombre_cientifico": "Tillandsia", "nombre_comun": "Heno, gallitos y claveles de aire" }, "geometry": { "type": "Point", "coordinates": [ -98.735948634300001, 20.122243496300001 ] } },
{ "type": "Feature", "properties": { "Plaga": "Tilandsia bromelia", "Hospedero": null, "eventDate": "2017-11-17", "url": "https://www.inaturalist.org/observations/13717453", "url_image": "https://static.inaturalist.org/photos/20209783/medium.jpeg?1529793759", "sitio": "Hidalgo, MX", "nombre_cientifico": "Tillandsia imperialis", "nombre_comun": "Tecolote" }, "geometry": { "type": "Point", "coordinates": [ -98.712731576500005, 20.316892832499988 ] } },
{ "type": "Feature", "properties": { "Plaga": "Tilandsia bromelia", "Hospedero": null, "eventDate": "2018-07-26", "url": "https://www.inaturalist.org/observations/14839823", "url_image": "https://static.inaturalist.org/photos/22152154/medium.jpeg?1532799655", "sitio": "Huasca de Ocampo, MX-HI, MX", "nombre_cientifico": "Tillandsia usneoides", "nombre_comun": "Heno" }, "geometry": { "type": "Point", "coordinates": [ -98.5595691, 20.2317903 ] } },
{ "type": "Feature", "properties": { "Plaga": "Tilandsia bromelia", "Hospedero": null, "eventDate": "2018-07-27", "url": "https://www.inaturalist.org/observations/14839978", "url_image": "https://static.inaturalist.org/photos/22152504/medium.jpeg?1532799883", "sitio": "El Chico, Mineral del Chico, MX-HI, MX", "nombre_cientifico": "Tillandsia", "nombre_comun": "Heno, gallitos y claveles de aire" }, "geometry": { "type": "Point", "coordinates": [ -98.71541193, 20.201348010000022 ] } },
{ "type": "Feature", "properties": { "Plaga": "Tilandsia bromelia", "Hospedero": null, "eventDate": "2018-07-29", "url": "https://www.inaturalist.org/observations/14902278", "url_image": "https://static.inaturalist.org/photos/22243744/medium.jpeg?1532896779", "sitio": "Tollan, 16 de Enero ( El Tesoro ), 42800 Hgo., México", "nombre_cientifico": "Tillandsia recurvata", "nombre_comun": "Gallinitas" }, "geometry": { "type": "Point", "coordinates": [ -99.33681141, 20.066178390000019 ] } },
{ "type": "Feature", "properties": { "Plaga": "Tilandsia bromelia", "Hospedero": null, "eventDate": "2018-08-03", "url": "https://www.inaturalist.org/observations/15090857", "url_image": "https://static.inaturalist.org/photos/22538848/medium.jpg?1533344361", "sitio": "42757, Chilcuautla, HGO, MX", "nombre_cientifico": "Tillandsia usneoides", "nombre_comun": "Heno" }, "geometry": { "type": "Point", "coordinates": [ -99.222258450599995, 20.373306646999964 ] } },
{ "type": "Feature", "properties": { "Plaga": "Tilandsia bromelia", "Hospedero": null, "eventDate": "2018-09-13", "url": "https://www.inaturalist.org/observations/16650764", "url_image": "https://static.inaturalist.org/photos/25103926/medium.jpg?1537246722", "sitio": "Pachuca, Hgo., México", "nombre_cientifico": "Tillandsia violacea", "nombre_comun": "Magueyito" }, "geometry": { "type": "Point", "coordinates": [ -98.724739074400006, 20.174032211099977 ] } },
{ "type": "Feature", "properties": { "Plaga": "Tilandsia bromelia", "Hospedero": null, "eventDate": "2018-09-30", "url": "https://www.inaturalist.org/observations/17200030", "url_image": "https://static.inaturalist.org/photos/26071974/medium.jpeg?1538691411", "sitio": "Cuautepec de Hinojosa, Hgo., Mexico", "nombre_cientifico": "Tillandsia usneoides", "nombre_comun": "Heno" }, "geometry": { "type": "Point", "coordinates": [ -98.23846276, 20.014930786900003 ] } },
{ "type": "Feature", "properties": { "Plaga": "Tilandsia bromelia", "Hospedero": null, "eventDate": "2018-09-30", "url": "https://www.inaturalist.org/observations/17200031", "url_image": "https://static.inaturalist.org/photos/26071980/medium.jpeg?1538691418", "sitio": "Cuautepec de Hinojosa, Hgo., Mexico", "nombre_cientifico": "Tillandsia recurvata", "nombre_comun": "Gallinitas" }, "geometry": { "type": "Point", "coordinates": [ -98.23846276, 20.014930786900003 ] } },
{ "type": "Feature", "properties": { "Plaga": "Tilandsia bromelia", "Hospedero": null, "eventDate": "2018-09-30", "url": "https://www.inaturalist.org/observations/17200041", "url_image": "https://static.inaturalist.org/photos/26072133/medium.jpeg?1538691584", "sitio": "Cuautepec de Hinojosa, Hgo., Mexico", "nombre_cientifico": "Tillandsia usneoides", "nombre_comun": "Heno" }, "geometry": { "type": "Point", "coordinates": [ -98.23846276, 20.014930786900003 ] } },
{ "type": "Feature", "properties": { "Plaga": "Tilandsia bromelia", "Hospedero": null, "eventDate": "2018-09-30", "url": "https://www.inaturalist.org/observations/17218050", "url_image": "https://static.inaturalist.org/photos/26105248/medium.jpeg?1538757076", "sitio": "Cuautepec de Hinojosa, Hgo., Mexico", "nombre_cientifico": "Tillandsia usneoides", "nombre_comun": "Heno" }, "geometry": { "type": "Point", "coordinates": [ -98.238807798799996, 20.015084310599999 ] } },
{ "type": "Feature", "properties": { "Plaga": "Tilandsia bromelia", "Hospedero": null, "eventDate": "2018-09-30", "url": "https://www.inaturalist.org/observations/17229916", "url_image": "https://static.inaturalist.org/photos/26126375/medium.jpeg?1538780700", "sitio": "Cuautepec de Hinojosa, Hgo., Mexico", "nombre_cientifico": "Tillandsia", "nombre_comun": "Heno, gallitos y claveles de aire" }, "geometry": { "type": "Point", "coordinates": [ -98.2408542127, 20.01467068540002 ] } },
{ "type": "Feature", "properties": { "Plaga": "Tilandsia bromelia", "Hospedero": null, "eventDate": "2018-07-14", "url": "https://www.inaturalist.org/observations/17648239", "url_image": "https://static.inaturalist.org/photos/26887331/medium.jpeg?1539963376", "sitio": "Unnamed Road, Hidalgo, México", "nombre_cientifico": "Tillandsia erubescens", "nombre_comun": null }, "geometry": { "type": "Point", "coordinates": [ -99.717781066900002, 20.190834045399992 ] } },
{ "type": "Feature", "properties": { "Plaga": "Tilandsia bromelia", "Hospedero": null, "eventDate": "2018-10-28", "url": "https://www.inaturalist.org/observations/17920920", "url_image": "https://static.inaturalist.org/photos/27376403/medium.jpeg?1540773844", "sitio": "Avenida Las Carreras s/n, Centro, 43500 San Miguel Regla, Hgo., México", "nombre_cientifico": "Tillandsia recurvata", "nombre_comun": "Gallinitas" }, "geometry": { "type": "Point", "coordinates": [ -98.558975219700002, 20.218973159800015 ] } },
{ "type": "Feature", "properties": { "Plaga": "Tilandsia bromelia", "Hospedero": null, "eventDate": "2018-10-23", "url": "https://www.inaturalist.org/observations/17933691", "url_image": "https://static.inaturalist.org/photos/27399807/medium.jpeg?1540823925", "sitio": "Barrio del Calvario, Mineral del Chico, Hgo., México", "nombre_cientifico": "Tillandsia", "nombre_comun": "Heno, gallitos y claveles de aire" }, "geometry": { "type": "Point", "coordinates": [ -98.730536666700004, 20.210938333300007 ] } },
{ "type": "Feature", "properties": { "Plaga": "Tilandsia bromelia", "Hospedero": null, "eventDate": "2018-10-29", "url": "https://www.inaturalist.org/observations/17961020", "url_image": "https://static.inaturalist.org/photos/27448752/medium.jpeg?1540912640", "sitio": "Unnamed Road, Hidalgo, México", "nombre_cientifico": "Tillandsia usneoides", "nombre_comun": "Heno" }, "geometry": { "type": "Point", "coordinates": [ -98.562759399399994, 20.235559463499982 ] } },
{ "type": "Feature", "properties": { "Plaga": "Tilandsia bromelia", "Hospedero": null, "eventDate": "2018-08-14", "url": "https://www.inaturalist.org/observations/18014262", "url_image": "https://static.inaturalist.org/photos/27539631/medium.jpg?1541100528", "sitio": "Dañu, Hgo., México", "nombre_cientifico": "Tillandsia erubescens", "nombre_comun": null }, "geometry": { "type": "Point", "coordinates": [ -99.7055118, 20.206499300000022 ] } },
{ "type": "Feature", "properties": { "Plaga": "Tilandsia bromelia", "Hospedero": null, "eventDate": "2018-12-06", "url": "https://www.inaturalist.org/observations/18879465", "url_image": "https://static.inaturalist.org/photos/28938388/medium.jpeg?1544220044", "sitio": "General Catarino Chacón, Hidalgo, México", "nombre_cientifico": "Tillandsia recurvata", "nombre_comun": "Gallinitas" }, "geometry": { "type": "Point", "coordinates": [ -99.664169311500004, 20.411111831700008 ] } },
{ "type": "Feature", "properties": { "Plaga": "Tilandsia bromelia", "Hospedero": null, "eventDate": "2018-12-02", "url": "https://www.inaturalist.org/observations/18888841", "url_image": "https://static.inaturalist.org/photos/28941593/medium.jpeg?1544226718", "sitio": "El Chico, Pachuca de Soto, Hidalgo, Mexico", "nombre_cientifico": "Tillandsia violacea", "nombre_comun": "Magueyito" }, "geometry": { "type": "Point", "coordinates": [ -98.726948055600005, 20.178486388900001 ] } },
{ "type": "Feature", "properties": { "Plaga": "Tilandsia bromelia", "Hospedero": null, "eventDate": "2018-10-27", "url": "https://www.inaturalist.org/observations/18971935", "url_image": "https://static.inaturalist.org/photos/29086625/medium.jpeg?1544579208", "sitio": "Hidalgo, MX", "nombre_cientifico": "Tillandsia imperialis", "nombre_comun": "Tecolote" }, "geometry": { "type": "Point", "coordinates": [ -98.651378051099996, 20.585931916900005 ] } },
{ "type": "Feature", "properties": { "Plaga": "Tilandsia bromelia", "Hospedero": null, "eventDate": "2018-12-09", "url": "https://www.inaturalist.org/observations/19486335", "url_image": "https://static.inaturalist.org/photos/29982767/medium.jpeg?1546842768", "sitio": "Hidalgo, MX", "nombre_cientifico": "Tillandsia", "nombre_comun": "Heno, gallitos y claveles de aire" }, "geometry": { "type": "Point", "coordinates": [ -98.646513374099996, 20.556560317199988 ] } },
{ "type": "Feature", "properties": { "Plaga": "Tilandsia bromelia", "Hospedero": null, "eventDate": "2018-12-19", "url": "https://www.inaturalist.org/observations/19790872", "url_image": "https://static.inaturalist.org/photos/30501725/medium.jpeg?1548118794", "sitio": "Unnamed Road, Hidalgo, Mexico", "nombre_cientifico": "Tillandsia", "nombre_comun": "Heno, gallitos y claveles de aire" }, "geometry": { "type": "Point", "coordinates": [ -98.715510293799994, 20.179641052599987 ] } },
{ "type": "Feature", "properties": { "Plaga": "Tilandsia bromelia", "Hospedero": null, "eventDate": "2014-01-12", "url": "https://www.inaturalist.org/observations/20826143", "url_image": "https://static.inaturalist.org/photos/32123727/medium.jpg?1551353799", "sitio": "Huautla, MX-HI, MX", "nombre_cientifico": "Tillandsia usneoides", "nombre_comun": "Heno" }, "geometry": { "type": "Point", "coordinates": [ -98.289175568900006, 21.034526959300027 ] } },
{ "type": "Feature", "properties": { "Plaga": "Tilandsia bromelia", "Hospedero": null, "eventDate": "2019-02-23", "url": "https://www.inaturalist.org/observations/20866290", "url_image": "https://static.inaturalist.org/photos/32193401/medium.jpeg?1551491410", "sitio": "Unnamed Road, Hidalgo, México", "nombre_cientifico": "Tillandsia", "nombre_comun": "Heno, gallitos y claveles de aire" }, "geometry": { "type": "Point", "coordinates": [ -99.647499084499998, 20.467500686599973 ] } },
{ "type": "Feature", "properties": { "Plaga": "Tilandsia bromelia", "Hospedero": null, "eventDate": "2017-04-16", "url": "https://www.inaturalist.org/observations/21048119", "url_image": "https://static.inaturalist.org/photos/32518288/medium.jpg?1552042126", "sitio": "Ixmiquilpan, Hgo., México", "nombre_cientifico": "Tillandsia usneoides", "nombre_comun": "Heno" }, "geometry": { "type": "Point", "coordinates": [ -99.2171174, 20.4831412 ] } },
{ "type": "Feature", "properties": { "Plaga": "Tilandsia bromelia", "Hospedero": null, "eventDate": "2019-03-16", "url": "https://www.inaturalist.org/observations/21347033", "url_image": "https://static.inaturalist.org/photos/33015723/medium.jpg?1552879242", "sitio": "Mineral del Chico, Hgo., México", "nombre_cientifico": "Tillandsia usneoides", "nombre_comun": "Heno" }, "geometry": { "type": "Point", "coordinates": [ -98.7310435, 20.215047199999969 ] } },
{ "type": "Feature", "properties": { "Plaga": "Tilandsia bromelia", "Hospedero": null, "eventDate": "2019-03-16", "url": "https://www.inaturalist.org/observations/21347036", "url_image": "https://static.inaturalist.org/photos/33015739/medium.jpg?1552879253", "sitio": "Mineral del Chico, Hgo., México", "nombre_cientifico": "Tillandsia usneoides", "nombre_comun": "Heno" }, "geometry": { "type": "Point", "coordinates": [ -98.7310435, 20.215047199999969 ] } },
{ "type": "Feature", "properties": { "Plaga": "Tilandsia bromelia", "Hospedero": null, "eventDate": "2017-07-20", "url": "https://www.inaturalist.org/observations/21348520", "url_image": "https://static.inaturalist.org/photos/33018294/medium.jpg?1552882195", "sitio": "Lolotla, Hgo., México", "nombre_cientifico": "Tillandsia multicaulis", "nombre_comun": "Pie de gallo de montaña" }, "geometry": { "type": "Point", "coordinates": [ -98.687352288, 20.876969830699995 ] } },
{ "type": "Feature", "properties": { "Plaga": "Tilandsia bromelia", "Hospedero": null, "eventDate": "2019-03-16", "url": "https://www.inaturalist.org/observations/21475046", "url_image": "https://static.inaturalist.org/photos/33228433/medium.jpeg?1553229922", "sitio": "Hidalgo, MX", "nombre_cientifico": "Tillandsia", "nombre_comun": "Heno, gallitos y claveles de aire" }, "geometry": { "type": "Point", "coordinates": [ -98.794910400500001, 20.572868699800008 ] } },
{ "type": "Feature", "properties": { "Plaga": "Tilandsia bromelia", "Hospedero": null, "eventDate": "2019-03-24", "url": "https://www.inaturalist.org/observations/21737295", "url_image": "https://static.inaturalist.org/photos/33663126/medium.jpeg?1553870907", "sitio": "Nonoalco hgo", "nombre_cientifico": "Tillandsia", "nombre_comun": "Heno, gallitos y claveles de aire" }, "geometry": { "type": "Point", "coordinates": [ -98.698056, 20.7175 ] } },
{ "type": "Feature", "properties": { "Plaga": "Tilandsia bromelia", "Hospedero": null, "eventDate": "2016-06-18", "url": "https://www.inaturalist.org/observations/21800387", "url_image": "https://static.inaturalist.org/photos/33768538/medium.jpeg?1553983689", "sitio": "Ajacuba, Hgo., México", "nombre_cientifico": "Tillandsia", "nombre_comun": "Heno, gallitos y claveles de aire" }, "geometry": { "type": "Point", "coordinates": [ -99.1278823305, 20.051758867000014 ] } },
{ "type": "Feature", "properties": { "Plaga": "Tilandsia bromelia", "Hospedero": null, "eventDate": "2019-03-31", "url": "https://www.inaturalist.org/observations/21926477", "url_image": "https://static.inaturalist.org/photos/33976356/medium.jpeg?1554245762", "sitio": "La Malinche, Tula de Allende, Hgo., México", "nombre_cientifico": "Tillandsia recurvata", "nombre_comun": "Gallinitas" }, "geometry": { "type": "Point", "coordinates": [ -99.349163333299998, 20.064533333299984 ] } },
{ "type": "Feature", "properties": { "Plaga": "Tilandsia bromelia", "Hospedero": null, "eventDate": "2019-03-31", "url": "https://www.inaturalist.org/observations/21926481", "url_image": "https://static.inaturalist.org/photos/33976473/medium.jpeg?1554245937", "sitio": "Tula de Allende, Hidalgo, Mexico", "nombre_cientifico": "Tillandsia recurvata", "nombre_comun": "Gallinitas" }, "geometry": { "type": "Point", "coordinates": [ -99.348546666700003, 20.062795 ] } },
{ "type": "Feature", "properties": { "Plaga": "Tilandsia bromelia", "Hospedero": null, "eventDate": "2019-03-04", "url": "https://www.inaturalist.org/observations/21951475", "url_image": "https://static.inaturalist.org/photos/34019710/medium.jpg?1554312730", "sitio": "43358, Metztitlán, HGO, MX", "nombre_cientifico": "Tillandsia recurvata", "nombre_comun": "Gallinitas" }, "geometry": { "type": "Point", "coordinates": [ -98.891054706700004, 20.437664073800022 ] } },
{ "type": "Feature", "properties": { "Plaga": "Tilandsia bromelia", "Hospedero": null, "eventDate": "2018-08-25", "url": "https://www.inaturalist.org/observations/22305002", "url_image": "https://static.inaturalist.org/photos/34543578/medium.jpeg?1554940571", "sitio": "Hidalgo, MX", "nombre_cientifico": "Tillandsia imperialis", "nombre_comun": "Tecolote" }, "geometry": { "type": "Point", "coordinates": [ -98.731085904500006, 20.668429641899991 ] } },
{ "type": "Feature", "properties": { "Plaga": "Tilandsia bromelia", "Hospedero": null, "eventDate": "2019-04-15", "url": "https://www.inaturalist.org/observations/22952266", "url_image": "https://static.inaturalist.org/photos/35577770/medium.jpeg?1556042371", "sitio": "El Paredón, Eloxochitlán, Hgo., México", "nombre_cientifico": "Tillandsia", "nombre_comun": "Heno, gallitos y claveles de aire" }, "geometry": { "type": "Point", "coordinates": [ -98.813142089199999, 20.741264760699991 ] } },
{ "type": "Feature", "properties": { "Plaga": "Tilandsia bromelia", "Hospedero": null, "eventDate": "2019-04-20", "url": "https://www.inaturalist.org/observations/23239291", "url_image": "https://static.inaturalist.org/photos/36001623/medium.jpeg?1556316215", "sitio": "Huichapan, Hgo., México", "nombre_cientifico": "Tillandsia recurvata", "nombre_comun": "Gallinitas" }, "geometry": { "type": "Point", "coordinates": [ -99.71356, 20.372203333299989 ] } },
{ "type": "Feature", "properties": { "Plaga": "Tilandsia bromelia", "Hospedero": null, "eventDate": "2019-04-26", "url": "https://www.inaturalist.org/observations/23378685", "url_image": "https://static.inaturalist.org/photos/36211765/medium.jpeg?1556377281", "sitio": "Atotonilco de Tula, Hgo., Mexico", "nombre_cientifico": "Tillandsia", "nombre_comun": "Heno, gallitos y claveles de aire" }, "geometry": { "type": "Point", "coordinates": [ -99.162388927899997, 20.033800544899972 ] } },
{ "type": "Feature", "properties": { "Plaga": "Tilandsia bromelia", "Hospedero": null, "eventDate": "2019-04-26", "url": "https://www.inaturalist.org/observations/23387888", "url_image": "https://static.inaturalist.org/photos/36224035/medium.jpeg?1556379435", "sitio": "Atotonilco de Tula, Hgo., Mexico", "nombre_cientifico": "Tillandsia usneoides", "nombre_comun": "Heno" }, "geometry": { "type": "Point", "coordinates": [ -99.145610291, 20.03191068830003 ] } },
{ "type": "Feature", "properties": { "Plaga": "Tilandsia bromelia", "Hospedero": null, "eventDate": "2019-04-27", "url": "https://www.inaturalist.org/observations/23850268", "url_image": "https://static.inaturalist.org/photos/36893662/medium.jpeg?1556511039", "sitio": "Las Lajas, 42050 Pachuca de Soto, Hgo., México", "nombre_cientifico": "Tillandsia", "nombre_comun": "Heno, gallitos y claveles de aire" }, "geometry": { "type": "Point", "coordinates": [ -98.724911030599998, 20.122920340699991 ] } },
{ "type": "Feature", "properties": { "Plaga": "Tilandsia bromelia", "Hospedero": null, "eventDate": "2019-04-28", "url": "https://www.inaturalist.org/observations/24092388", "url_image": "https://static.inaturalist.org/photos/37258132/medium.jpeg?1556586711", "sitio": "10 de Mayo, Bóvedas, 42980 Atotonilco de Tula, Hgo., Mexico", "nombre_cientifico": "Tillandsia usneoides", "nombre_comun": "Heno" }, "geometry": { "type": "Point", "coordinates": [ -99.212631293, 20.009687473099991 ] } },
{ "type": "Feature", "properties": { "Plaga": "Tilandsia bromelia", "Hospedero": null, "eventDate": "2019-04-28", "url": "https://www.inaturalist.org/observations/24096692", "url_image": "https://static.inaturalist.org/photos/37264716/medium.jpeg?1556587686", "sitio": "Progreso, Hgo., Mexico", "nombre_cientifico": "Tillandsia usneoides", "nombre_comun": "Heno" }, "geometry": { "type": "Point", "coordinates": [ -99.244995441499995, 20.0252071315 ] } },
{ "type": "Feature", "properties": { "Plaga": "Tilandsia bromelia", "Hospedero": null, "eventDate": "2019-05-03", "url": "https://www.inaturalist.org/observations/24478253", "url_image": "https://static.inaturalist.org/photos/37849451/medium.jpg?1556929541", "sitio": "Carretera Mixquihuala-Tlacotlapilco, Chilcuautla, HGO, MX", "nombre_cientifico": "Tillandsia usneoides", "nombre_comun": "Heno" }, "geometry": { "type": "Point", "coordinates": [ -99.23513, 20.334566666699992 ] } },
{ "type": "Feature", "properties": { "Plaga": "Tilandsia bromelia", "Hospedero": null, "eventDate": "2017-11-05", "url": "https://www.inaturalist.org/observations/24811067", "url_image": "https://static.inaturalist.org/photos/38372286/medium.jpeg?1557359454", "sitio": "Huasca de Ocampo, Hgo., Mexico", "nombre_cientifico": "Tillandsia usneoides", "nombre_comun": "Heno" }, "geometry": { "type": "Point", "coordinates": [ -98.549991682300004, 20.252869383700006 ] } },
{ "type": "Feature", "properties": { "Plaga": "Tilandsia bromelia", "Hospedero": null, "eventDate": "2017-11-05", "url": "https://www.inaturalist.org/observations/25077176", "url_image": "https://static.inaturalist.org/photos/38806735/medium.jpeg?1557781333", "sitio": "Huasca de Ocampo, Hgo., Mexico", "nombre_cientifico": "Tillandsia usneoides", "nombre_comun": "Heno" }, "geometry": { "type": "Point", "coordinates": [ -98.550542734100006, 20.254088561600028 ] } },
{ "type": "Feature", "properties": { "Plaga": "Tilandsia bromelia", "Hospedero": null, "eventDate": "2009-05-15", "url": "https://www.inaturalist.org/observations/25221224", "url_image": "https://static.inaturalist.org/photos/39042774/medium.jpeg?1558027129", "sitio": "Tlanchinol, Hgo., México", "nombre_cientifico": "Tillandsia", "nombre_comun": "Heno, gallitos y claveles de aire" }, "geometry": { "type": "Point", "coordinates": [ -98.666053970799993, 21.012996366100008 ] } },
{ "type": "Feature", "properties": { "Plaga": "Tilandsia bromelia", "Hospedero": null, "eventDate": "2019-05-19", "url": "https://www.inaturalist.org/observations/25469092", "url_image": "https://static.inaturalist.org/photos/39451025/medium.jpeg?1558390681", "sitio": "Santiago de Anaya, Hgo., México", "nombre_cientifico": "Tillandsia", "nombre_comun": "Heno, gallitos y claveles de aire" }, "geometry": { "type": "Point", "coordinates": [ -98.9286470041, 20.39219407729998 ] } }
]
}
